{"type":"FeatureCollection","crs":{"type":"name","properties":{"name":"EPSG:4326"}},"features":[{"type":"Feature","id":1,"geometry":{"type":"Polygon","coordinates":[[[-86.7855733178865,36.1574303274364],[-86.7841734109873,36.1580178688296],[-86.7847537518289,36.1589077500814],[-86.7841250280237,36.1591831508821],[-86.7839543668515,36.1589161441146],[-86.783881079026,36.1588015179466],[-86.7830775270338,36.1591438514141],[-86.7842266941018,36.1609454875973],[-86.7844924282434,36.161342798965],[-86.7853758474712,36.1624045440976],[-86.7851377567089,36.1627322538994],[-86.784348599228,36.1631254143474],[-86.7824593156858,36.1639594636653],[-86.7822873408104,36.1640130332769],[-86.783162912079,36.1653362002319],[-86.7807148416392,36.1663661793925],[-86.7794110258151,36.1669556648838],[-86.7794940451164,36.1672133395236],[-86.7779905101641,36.1678175225526],[-86.7762287117215,36.1684758034234],[-86.7749707831685,36.1655289585327],[-86.7735712228964,36.1635271844548],[-86.7720235294798,36.1618060988543],[-86.7710081973597,36.1610571968475],[-86.7696593228453,36.1605330689092],[-86.7683092918277,36.1598878558387],[-86.7670199399351,36.1593391033114],[-86.7659211649065,36.1591658241599],[-86.7667287489448,36.1575662442728],[-86.7668893254062,36.1574918849201],[-86.7670498653715,36.1569362238758],[-86.7670624736015,36.156796020547],[-86.7667069594757,36.1568673945374],[-86.7666020745687,36.1568402215117],[-86.7669904468681,36.1559506766604],[-86.7686697246804,36.1566458383195],[-86.7689946975549,36.1561954598017],[-86.7698615126158,36.1558274718337],[-86.7699973321564,36.1560364517643],[-86.7710931903481,36.1555763767751],[-86.7718665041257,36.1552709718822],[-86.7719519593136,36.1551082712969],[-86.7720280075157,36.1550667688629],[-86.7724467161946,36.154944859415],[-86.7725346928459,36.1549204495181],[-86.7730933598672,36.1547375486056],[-86.7742907897469,36.1541283513409],[-86.7738837029888,36.1534662505877],[-86.7757764567574,36.1536418865524],[-86.7759378999429,36.1536885402767],[-86.776283374957,36.1536863183895],[-86.7764105074099,36.1536071060864],[-86.7771836116266,36.1538810533158],[-86.7776016426802,36.1540725357416],[-86.7777859224003,36.1541513909935],[-86.7778725420841,36.1538819671015],[-86.7793784062754,36.1540066837381],[-86.7793326984402,36.1519491206336],[-86.7820644600319,36.1535549857811],[-86.7830254271545,36.1540244383992],[-86.7833567648393,36.1543134655796],[-86.7838373832315,36.1548981534458],[-86.7843530585913,36.1553946717053],[-86.7846413636874,36.1559939295818],[-86.7851052444568,36.1567409508826],[-86.785377514867,36.1571941826152],[-86.7855733178865,36.1574303274364]]]},"properties":{"OBJECTID":1,"Name":"Central Business Improvement District","Ordinance":null,"OrdinanceDate":null,"GlobalID":"9b87bb09-767b-4210-8837-be464be08fa8"}},{"type":"Feature","id":2,"geometry":{"type":"Polygon","coordinates":[[[-86.7845762387435,36.1552068406003],[-86.7845752067391,36.1552051988834],[-86.7844706412483,36.1552501067785],[-86.7844706385315,36.1552498319083],[-86.7842671089295,36.1549370696342],[-86.784250467175,36.1549114951399],[-86.7839832437741,36.1545008481491],[-86.7839729303708,36.1544855313378],[-86.7839622807493,36.1544704915977],[-86.7839516295281,36.1544551769791],[-86.7839406436926,36.1544404143092],[-86.7839293189241,36.15442565384],[-86.7839176563341,36.1544108955642],[-86.7839056575175,36.1543964134581],[-86.7838933197772,36.1543819344536],[-86.7838809885734,36.15436800428],[-86.7838765195068,36.1543614405046],[-86.783870016328,36.1543546150539],[-86.7838638493724,36.1543475125308],[-86.7838573450846,36.1543406870867],[-86.7838505029725,36.1543338638364],[-86.7838439997982,36.1543270383843],[-86.7838371576884,36.1543202151333],[-86.7838303182944,36.1543136667522],[-86.783823476187,36.1543068435004],[-86.7838166367864,36.1543002942173],[-86.7838097973958,36.154293745835],[-86.7838026163554,36.1542869247835],[-86.7837957796816,36.1542806512708],[-86.783788601358,36.1542741050887],[-86.783781424138,36.1542675579977],[-86.7837739095948,36.1542612888865],[-86.7837667339802,36.1542550166722],[-86.7837592172169,36.1542487475744],[-86.783751706011,36.1542424784401],[-86.7837441914637,36.1542362084258],[-86.783736680752,36.1542302141753],[-86.7837291662337,36.1542239468636],[-86.7837213165614,36.1542179521097],[-86.7837134657968,36.154211959165],[-86.7837059550808,36.1542059640113],[-86.7836981070149,36.1542002441335],[-86.7836899184557,36.1541942560847],[-86.7836820715212,36.154188538001],[-86.7836738845405,36.1541828221251],[-86.7836660376083,36.1541771040403],[-86.7836578517501,36.1541713890573],[-86.7836336374085,36.1541547889482],[-86.7832308936882,36.1538472578139],[-86.7831598266699,36.1537853600254],[-86.7831495948325,36.1537782838457],[-86.7831393657092,36.1537714825356],[-86.7831291338844,36.1537644072554],[-86.7831189020524,36.1537573310731],[-86.7831086675103,36.1537499800195],[-86.7830987735049,36.1537429016432],[-86.7830888779095,36.1537355492897],[-86.783078985019,36.1537284709045],[-86.7830690894184,36.1537211176481],[-86.7830591911165,36.1537134904217],[-86.7830492944082,36.1537061371708],[-86.783039737756,36.1536987826139],[-86.7830301772557,36.1536911504893],[-86.783020617913,36.1536835228628],[-86.7830110585455,36.1536758925319],[-86.7830014980775,36.1536682631087],[-86.7829922776296,36.1536606287747],[-86.7829827144536,36.1536527244795],[-86.7829734913244,36.1536448179773],[-86.7829642698152,36.1536371881544],[-86.7829550455696,36.1536292807567],[-86.7824428878763,36.1532864176562],[-86.7823694056228,36.1532372249735],[-86.7816738463563,36.1527715757158],[-86.7815220835402,36.1526699749619],[-86.7814832638734,36.1526439849201],[-86.7814832247313,36.1526439599379],[-86.7814830289592,36.1526438287187],[-86.7814830341871,36.1526437953378],[-86.7814829897994,36.1526438019341],[-86.7814020404326,36.152589501741],[-86.7812623215865,36.1525007685462],[-86.7812573931017,36.1524978523923],[-86.7812558594377,36.1524969439249],[-86.7812513961311,36.1524943194752],[-86.781249380754,36.1524931329294],[-86.7812453914798,36.1524907965215],[-86.7812428877845,36.152489338249],[-86.7812393725426,36.1524872898829],[-86.7812363860853,36.1524855598476],[-86.7812333426177,36.1524837959329],[-86.7812325222378,36.1524833208659],[-86.7812319835498,36.1524830125132],[-86.7812281388688,36.1524808013466],[-86.7812268334777,36.1524800518276],[-86.7812246306676,36.152478790788],[-86.7812216298801,36.1524770725616],[-86.7812203245602,36.1524763302522],[-86.7812181128692,36.1524750701713],[-86.7812164152681,36.1524741032807],[-86.7812138035615,36.1524726231751],[-86.7812115840832,36.1524713622431],[-86.7812111951888,36.1524711430478],[-86.7812072727131,36.152468931483],[-86.7812059641041,36.1524681937011],[-86.7812050410557,36.1524676751361],[-86.7812007275345,36.1524652515998],[-86.7812006705418,36.152465219523],[-86.7812005856173,36.1524651723053],[-86.7811982378498,36.1524638617324],[-86.7811941591534,36.1524615853856],[-86.7811921947331,36.1524604949452],[-86.7811877876377,36.1524580485811],[-86.7811876960191,36.152457998703],[-86.7811876368306,36.1524579693441],[-86.7811875910036,36.1524579426026],[-86.7811810018472,36.1524543107705],[-86.7811808253042,36.1524542136747],[-86.7811743972494,36.1524506907546],[-86.7811738263181,36.1524503808077],[-86.7811724386341,36.1524496255119],[-86.7811683381578,36.1524473943689],[-86.7811677817615,36.1524470933406],[-86.7811659002921,36.1524460753658],[-86.7811654064446,36.1524458063784],[-86.7811643372209,36.1524452274729],[-86.7811621999292,36.1524440741607],[-86.7811611977614,36.1524435335758],[-86.7811611552859,36.1524435086151],[-86.7811551624771,36.1524402848027],[-86.7811550797929,36.1524402393731],[-86.7811491553647,36.152437075503],[-86.7811484426052,36.1524366952735],[-86.7811431394958,36.1524338797786],[-86.7811417944831,36.1524331692699],[-86.7811371126215,36.1524306949406],[-86.7811351342799,36.1524296577644],[-86.7811310769996,36.1524275245792],[-86.7811284608665,36.1524261589619],[-86.7811250314923,36.152424365998],[-86.7811217798435,36.1524226773324],[-86.781118970579,36.1524212228379],[-86.781115081192,36.1524192111384],[-86.7811129053187,36.1524180896196],[-86.7811102034166,36.1524167038278],[-86.7811077047981,36.152415422169],[-86.7811061924435,36.1524146460489],[-86.781105812688,36.1524144520296],[-86.7811028338236,36.1524129283333],[-86.7811010400882,36.152412017041],[-86.781099466376,36.1524112169835],[-86.7810957493806,36.1524093321482],[-86.7810940874991,36.1524084939067],[-86.7810890917738,36.1524059711359],[-86.781088705342,36.1524057762585],[-86.7810833133349,36.1524030739955],[-86.7810824254549,36.1524026282051],[-86.7810779091844,36.1524003799222],[-86.7810757415164,36.1523993016108],[-86.7810725029004,36.1523976948753],[-86.7810681197017,36.1523955304504],[-86.7810680013248,36.1523954717327],[-86.7810634942554,36.1523932549343],[-86.7810617924408,36.152392424161],[-86.7810589783939,36.1523910481067],[-86.7810547406239,36.1523889809787],[-86.781054434654,36.1523888315453],[-86.7810498854734,36.1523866267356],[-86.7810483020715,36.1523858582848],[-86.7810453330038,36.1523844264533],[-86.7810420993305,36.1523828701563],[-86.7810407862502,36.1523822423568],[-86.7810362373188,36.1523800627805],[-86.7810358967674,36.1523799000518],[-86.7810316795863,36.1523778922738],[-86.7810297378979,36.1523769657152],[-86.7809628439816,36.1523465084441],[-86.7809423127568,36.1523371590283],[-86.7809370481771,36.1523348696182],[-86.7809357803283,36.1523343208367],[-86.7809300426679,36.152331839813],[-86.7809292380233,36.1523314953265],[-86.7809230273532,36.1523288298987],[-86.7809226847305,36.1523286825048],[-86.7809161249392,36.1523258868489],[-86.7809159999572,36.1523258344827],[-86.7809095541867,36.1523231065853],[-86.7809089616178,36.1523228562612],[-86.7809029724553,36.1523203399115],[-86.7809019156776,36.1523198961139],[-86.7808963830698,36.1523175859046],[-86.7808948554514,36.1523169522816],[-86.7808897849632,36.152314849078],[-86.7808877865132,36.1523140265307],[-86.7808831781091,36.152312126728],[-86.7808807065961,36.1523111143695],[-86.7808765602761,36.1523094179678],[-86.7808736157267,36.1523082185017],[-86.7808699314818,36.1523067245997],[-86.7808665139316,36.1523053416309],[-86.7808632972559,36.1523040438843],[-86.7808594034156,36.1523024819403],[-86.780856654309,36.1523013803491],[-86.7808522819562,36.1522996394442],[-86.780850000392,36.1522987313049],[-86.7808451495355,36.1522968123403],[-86.7808433388387,36.1522960967301],[-86.7808257965109,36.1522894020292],[-86.7808242358934,36.1522888028672],[-86.7807823131794,36.1522727971455],[-86.7805769156261,36.1521968941107],[-86.7804194533159,36.1521387043729],[-86.7803858285301,36.1521262778778],[-86.7803086601147,36.1520977613358],[-86.7801876391641,36.1520530358905],[-86.7797974706765,36.1519088424029],[-86.7793919677635,36.1517226753055],[-86.7791626505449,36.1517036549485],[-86.7789544717371,36.1515715376365],[-86.7785157359507,36.1512930412732],[-86.7784656136177,36.1512357552955],[-86.7783503727681,36.1511516051192],[-86.7782939272313,36.1511103961957],[-86.7782514516611,36.1510793716551],[-86.77776317864,36.1508187866683],[-86.7771494719452,36.1503409149735],[-86.7765435573507,36.1498882788088],[-86.7760482215982,36.1496755169082],[-86.7758763174333,36.1495615857036],[-86.7754086478743,36.149251632106],[-86.7755357676018,36.149220888415],[-86.77555800706,36.1492155099869],[-86.7755755276367,36.1492111100234],[-86.7757668205189,36.1491630718691],[-86.7773211597368,36.1491262211144],[-86.7773455463475,36.1491256422224],[-86.7773888833976,36.1491246122766],[-86.7774093115241,36.1491241309755],[-86.7775493997871,36.1491208309844],[-86.7778040538121,36.149114794294],[-86.7785895199221,36.1490949992682],[-86.7785950959842,36.149094858742],[-86.7790339550427,36.1490832361486],[-86.7792518841538,36.1492005023169],[-86.780262515211,36.1492599024552],[-86.7809220452724,36.1492995893023],[-86.7812610998258,36.1494028822931],[-86.7819113245521,36.1495981089176],[-86.7823081330502,36.1497186067621],[-86.7824079863996,36.1497459799425],[-86.7826362236099,36.149808781356],[-86.782862621774,36.1498908238325],[-86.7831964321666,36.1500117274593],[-86.7835120009075,36.1501371441191],[-86.7835120979386,36.15013717954],[-86.7839310688555,36.1503025088962],[-86.7842900237434,36.1504441583917],[-86.7845408694978,36.1506007597721],[-86.7845413312314,36.1505973301301],[-86.7845461438872,36.1505615453395],[-86.7850554398612,36.1509000759894],[-86.785170781849,36.1509157999164],[-86.7851749203446,36.1509588295027],[-86.7851770423797,36.1509809058959],[-86.7851821656175,36.1510341711398],[-86.7853975393327,36.1511867493366],[-86.7855537659746,36.1512974244757],[-86.7857807715435,36.1515772499882],[-86.7860441439653,36.1519035340265],[-86.7861209711069,36.1519997293182],[-86.7862348435256,36.1521599457513],[-86.7862750937552,36.1522397904234],[-86.786438874821,36.1525646585249],[-86.7866786592991,36.1530394398201],[-86.7867214470954,36.1531869542597],[-86.7867826357118,36.1532803660897],[-86.7870076118937,36.1536246217969],[-86.7872514405283,36.1539996929592],[-86.7875727177804,36.1542489182294],[-86.7876068726522,36.1542772629488],[-86.7877533898518,36.1545004701572],[-86.7878259071367,36.154612989267],[-86.7880201132222,36.1549237029653],[-86.7881005596706,36.1550767399927],[-86.7883864059884,36.1554808915097],[-86.7886530627938,36.1558626413392],[-86.7886505522592,36.1559167755283],[-86.7886438733725,36.1559264339458],[-86.7886351510457,36.15593500977],[-86.7886247214101,36.1559422178044],[-86.7886219946165,36.1559436091623],[-86.7886132624329,36.1559480617296],[-86.788537711149,36.1559809705699],[-86.788237513914,36.1561103968377],[-86.7880972000111,36.1561711991599],[-86.787673251063,36.1563546431989],[-86.7875608985301,36.1564032574399],[-86.7873396278832,36.1564986516406],[-86.7871885177045,36.1565639188303],[-86.7870395871866,36.156628004466],[-86.7870394278476,36.1566280749031],[-86.78688320194,36.1566951767105],[-86.7868829153194,36.156695300251],[-86.7867317939225,36.156760295651],[-86.7867102160816,36.1567695481754],[-86.7865861937257,36.1568227259038],[-86.7865860819575,36.1568227743996],[-86.7864295659644,36.1568897269897],[-86.7862784422975,36.1569538944611],[-86.7862127811573,36.1569828456953],[-86.7859977974217,36.1570743966807],[-86.7857205226409,36.1571932278707],[-86.7848806269866,36.1559680005864],[-86.7847636423799,36.1557973430969],[-86.7848877706734,36.1557437925078],[-86.784785196166,36.1555790852363],[-86.7847786466309,36.1555675897463],[-86.7845762387435,36.1552068406003]]]},"properties":{"OBJECTID":2,"Name":"Gulch Business Improvement District","Ordinance":"BL2015-67","OrdinanceDate":"Wed, 06 Jan 2016 06:00:00 GMT","GlobalID":"f9ea168b-8774-4f14-912b-cee4777c09fa"}},{"type":"Feature","id":3,"geometry":{"type":"MultiPolygon","coordinates":[[[[-86.6496732717079,36.0386465587415],[-86.6496988028517,36.038459615462],[-86.6500129989234,36.0384974803408],[-86.6500337105047,36.0383830878905],[-86.6497141030763,36.0383452522448],[-86.6498117497746,36.0377117883476],[-86.6497980993496,36.0370349659419],[-86.6493836814357,36.0366524063884],[-86.6493673234105,36.0366373051191],[-86.6493431527464,36.0366182054706],[-86.6493183074633,36.0365993843458],[-86.6492927909089,36.0365811157182],[-86.6492669404188,36.0365633986708],[-86.6492407571024,36.0365462331978],[-86.6492138991596,36.0365293453456],[-86.6491863688427,36.0365130108965],[-86.6491588430268,36.0364972262033],[-86.649130644829,36.0364819940111],[-86.649101775366,36.0364673152148],[-86.6490729103808,36.0364531834701],[-86.6490433741591,36.0364396087256],[-86.6490135028746,36.0364265837625],[-86.6489832987534,36.0364141094698],[-86.6489527606928,36.0364021867544],[-86.648921888685,36.0363908147149],[-86.6488906849807,36.0363802691335],[-86.6488594846309,36.0363699975177],[-86.6488276107928,36.0363602793069],[-86.648795406366,36.0363513875473],[-86.6487632064262,36.0363430446401],[-86.6487306736525,36.0363352533027],[-86.6486981442549,36.0363280108235],[-86.6486652831559,36.0363215948009],[-86.6486320892209,36.0363157303473],[-86.6485988986598,36.0363104147516],[-86.6485653752396,36.036305648021],[-86.6485318552521,36.0363017095473],[-86.648498343044,36.036298044113],[-86.6484648375823,36.0362954773048],[-86.6484309959283,36.0362931871895],[-86.6483971576447,36.0362917181211],[-86.6483633305485,36.0362908041772],[-86.6483295045789,36.036290436399],[-86.6482956853353,36.0362908932546],[-86.6482615321307,36.0362919007826],[-86.6482277218454,36.0362934562425],[-86.6481942567203,36.0362958345157],[-86.6481604565222,36.0362987634671],[-86.6473979614075,36.0363665955091],[-86.6469862085408,36.0363094698211],[-86.6463101169667,36.0363548539725],[-86.6457957988879,36.0363290416226],[-86.6453041148003,36.0360921258221],[-86.6451165262039,36.0359239069763],[-86.6444782426676,36.0353515232699],[-86.6445946761153,36.0353618889654],[-86.6442975828005,36.035095391286],[-86.6433508200827,36.0342461180483],[-86.6421762693959,36.0331924782715],[-86.641748862215,36.0328090576634],[-86.6418285336885,36.0327490201995],[-86.64160130872,36.0325463929411],[-86.6415209471325,36.0326047854735],[-86.6400403720376,36.0312764516779],[-86.6405057061286,36.0309355319357],[-86.6405312573547,36.0309167177722],[-86.6405571480591,36.0308981730866],[-86.64058304208,36.0308796283776],[-86.6406089372089,36.030861360353],[-86.6406355091463,36.0308430878227],[-86.6406617437635,36.0308250919736],[-86.6406883189907,36.0308073682994],[-86.6407152326268,36.030789643721],[-86.6407421484665,36.0307721940181],[-86.6407690631815,36.0307550192084],[-86.6407966613615,36.0307378398564],[-86.6408239200036,36.0307209371972],[-86.6408515170473,36.0307040327318],[-86.6408621872663,36.0306976029567],[-86.6408791151857,36.0306874031475],[-86.6409070528353,36.0306707717508],[-86.6409353322019,36.0306546874153],[-86.6409632709349,36.030638330893],[-86.6409918909079,36.0306225196254],[-86.6410201702666,36.0306067137682],[-86.6410487946309,36.030591174653],[-86.6410777552065,36.0305756373471],[-86.6411067146517,36.0305603740324],[-86.6411356829529,36.0305453846556],[-86.6411656609419,36.0305301159065],[-86.6411956378099,36.0305148471557],[-86.6412259541864,36.030499851484],[-86.6412566111755,36.0304848530904],[-86.6412869330735,36.0304704071607],[-86.6413175933727,36.0304559594219],[-86.6413309645876,36.0304498432973],[-86.6413485931664,36.0304417829589],[-86.6413795940659,36.0304276073833],[-86.6414105971722,36.0304137066812],[-86.641441939788,36.0304000790571],[-86.6414732857208,36.0303867263005],[-86.6415049711562,36.0303736457201],[-86.6415363181695,36.0303605669333],[-86.6415683442215,36.0303477603172],[-86.6416000329321,36.0303349518837],[-86.6416320634155,36.0303226968164],[-86.6416640938598,36.0303104381355],[-86.6416964649319,36.0302984534265],[-86.6416633244453,36.0302151172943],[-86.6416953703666,36.030204781875],[-86.6417274184987,36.0301944464354],[-86.6417594644034,36.0301843858925],[-86.6417918531491,36.0301745984082],[-86.6418239056952,36.0301648127062],[-86.6418562944255,36.030155300098],[-86.6418886842575,36.0301457874752],[-86.6419214158217,36.0301365479164],[-86.6419538089605,36.0301273092506],[-86.6419865427294,36.0301183445557],[-86.6420192775942,36.0301096538382],[-86.6420520135614,36.0301009631059],[-86.6420592309538,36.0301245312345],[-86.642441069148,36.0313713628621],[-86.6433783497113,36.0311751610478],[-86.6430185558228,36.0299489776361],[-86.6430186466812,36.0299489618293],[-86.6431460960423,36.0299374165195],[-86.6431492579568,36.029937228396],[-86.6431539563881,36.0299370077356],[-86.64320598288,36.0299385298802],[-86.6432569559358,36.029947128248],[-86.6433054277876,36.0299625573079],[-86.6433500212313,36.0299843791796],[-86.6433894696563,36.0300119742342],[-86.6434226526881,36.0300445580283],[-86.6434486274526,36.030081205471],[-86.6434666565262,36.0301208768112],[-86.6434762270034,36.0301624427711],[-86.6434770685791,36.0302047250075],[-86.6434691559741,36.0302465213344],[-86.6434527136882,36.0302866444533],[-86.6436175945648,36.03026358935],[-86.6437432924168,36.0308356290862],[-86.6437469033753,36.0308522476071],[-86.6437628814994,36.0309225205401],[-86.6437821689441,36.031000111387],[-86.6438031207466,36.0310774175416],[-86.6438257300571,36.031154414705],[-86.6438499911499,36.0312310803744],[-86.6438758949486,36.0313073893615],[-86.6439034346249,36.0313833200706],[-86.6439326011096,36.0314588482144],[-86.6439633875742,36.0315339521972],[-86.6439957816205,36.0316086077493],[-86.6440297753104,36.0316827932809],[-86.6440653584644,36.0317564845103],[-86.6441025187204,36.0318296616739],[-86.6441412458914,36.0319022995885],[-86.6441815287173,36.0319743775833],[-86.6442233537186,36.0320458749991],[-86.6442667073792,36.0321167666705],[-86.6443115795627,36.032187033723],[-86.6443579545553,36.0322566537069],[-86.6444058177747,36.0323256068699],[-86.6444551557187,36.0323938698491],[-86.6445059527022,36.0324614237996],[-86.6445581941206,36.0325282462653],[-86.6446118631787,36.0325943184073],[-86.6446669430742,36.0326596204852],[-86.6447234180921,36.0327241300489],[-86.644781271459,36.0327878309631],[-86.6448404841304,36.0328507007956],[-86.6449010393253,36.0329127225096],[-86.6449629169043,36.0329738754814],[-86.6450261000855,36.0330341426742],[-86.6450544477203,36.0330602445813],[-86.6450905687437,36.0330935052668],[-86.6452023804505,36.0330119734763],[-86.6453472727941,36.0329063189371],[-86.6452867863753,36.0328506250321],[-86.6452275070748,36.0327940810252],[-86.6451694516892,36.0327367057551],[-86.6451126370005,36.0326785162583],[-86.6450570831261,36.0326195304545],[-86.645002803519,36.0325597653981],[-86.6449539316342,36.0325040208653],[-86.645006750177,36.0324739874513],[-86.6450352939334,36.0324590561973],[-86.6450651718983,36.032445958227],[-86.645096204951,36.0324347720095],[-86.6451282083281,36.0324255643275],[-86.6451609905141,36.0324183902828],[-86.6451943565554,36.0324132914771],[-86.6452281080818,36.0324102987146],[-86.6452620421975,36.0324094320087],[-86.6452959580795,36.0324106933361],[-86.6453296526196,36.0324140765744],[-86.6453629270385,36.0324195620587],[-86.6453955791179,36.0324271166237],[-86.6454274165305,36.0324366953343],[-86.6454582490654,36.0324482406263],[-86.6454878941905,36.0324616840789],[-86.645516172607,36.0324769455376],[-86.645542917133,36.0324939339675],[-86.6455446377529,36.0324951135501],[-86.6455563727986,36.0325029964472],[-86.6455682762577,36.0325107117022],[-86.6455803436846,36.0325182584375],[-86.6455925717065,36.0325256312635],[-86.6456049558927,36.0325328311052],[-86.6456174928774,36.0325398534741],[-86.6456301782153,36.0325466974925],[-86.645643009665,36.0325533604688],[-86.645655981664,36.03255984063],[-86.6456690908616,36.0325661352903],[-86.6456823339217,36.0325722435659],[-86.6456957063912,36.0325781636784],[-86.6457092027002,36.0325838929536],[-86.6457228217244,36.0325894295949],[-86.6457365556895,36.0325947727427],[-86.6457504045733,36.0325999196931],[-86.6457643606087,36.0326048704877],[-86.6457784215546,36.0326096224347],[-86.6457925818556,36.0326141746625],[-86.6458068381609,36.0326185244852],[-86.64582118493,36.0326226728337],[-86.6458356199141,36.0326266161148],[-86.6458501364632,36.0326303552655],[-86.6458647323287,36.0326338866926],[-86.6458794008603,36.0326372113332],[-86.6458941387144,36.0326403274023],[-86.6459089414528,36.0326432349239],[-86.6459238034981,36.0326459303226],[-86.645938722653,36.0326484163142],[-86.6459536922379,36.0326506902304],[-86.6459687089095,36.0326527502866],[-86.6459837660246,36.032654598321],[-86.645998862459,36.0326562325371],[-86.6460139915478,36.0326576520692],[-86.6460291477502,36.0326588578484],[-86.6460443277229,36.0326598480899],[-86.6460595270272,36.0326606228176],[-86.6460747401153,36.0326611820613],[-86.6460899636582,36.0326615258386],[-86.6461051920933,36.032661652377],[-86.6461204210043,36.032661564404],[-86.6461356448282,36.0326612601467],[-86.6461508602437,36.0326607405244],[-86.646166062805,36.0326600046595],[-86.6461812480881,36.0326590543784],[-86.6461964083116,36.0326578879202],[-86.6462115423801,36.0326565070934],[-86.6462266447458,36.0326549119278],[-86.6462417098605,36.0326531024531],[-86.6462567344101,36.0326510804896],[-86.6462717128466,36.0326488460673],[-86.6466195738593,36.0325943885611],[-86.6466795518697,36.0325859956149],[-86.646739892952,36.032579541167],[-86.6468005017528,36.0325750338404],[-86.6468612818021,36.0325724813628],[-86.646922138805,36.032571886043],[-86.6469829773643,36.032573251097],[-86.6470437020388,36.0325765743334],[-86.6483177540786,36.0326669028075],[-86.6483355850625,36.0326680389258],[-86.6483534372971,36.0326689234671],[-86.6483713052124,36.0326695537577],[-86.6483891843773,36.0326699307226],[-86.6484070692509,36.032670055293],[-86.6484249542633,36.0326699247949],[-86.6484428327714,36.0326695410666],[-86.6484607014537,36.0326689050275],[-86.6484785525283,36.0326680149167],[-86.648496382681,36.0326668725546],[-86.6485141863564,36.0326654770699],[-86.6485319557946,36.0326638294058],[-86.648549687674,36.0326619304812],[-86.6485673753297,36.0326597794309],[-86.6485850154549,36.0326573789766],[-86.6486026002822,36.03265472916],[-86.648620126483,36.0326518299992],[-86.6486375862972,36.0326486824371],[-86.6486549775203,36.0326452882883],[-86.6486722923851,36.0326416475946],[-86.6486895253655,36.0326377630896],[-86.6487066731182,36.032633632989],[-86.6487237301316,36.0326292618286],[-86.6487406897484,36.0326246496447],[-86.6487575486468,36.0326197973561],[-86.6487742990746,36.0326147068074],[-86.648790938827,36.032609379813],[-86.648807461254,36.0326038173102],[-86.648823861939,36.0325980220264],[-86.6488401353415,36.0325919948932],[-86.6488562759281,36.0325857377426],[-86.6488722803922,36.0325792532966],[-86.6488881443026,36.0325725424802],[-86.6489038599143,36.0325656080393],[-86.6489194250228,36.0325584517882],[-86.6489348329851,36.0325510755654],[-86.6489500816117,36.0325434829879],[-86.6489651631425,36.0325356749989],[-86.6489800753731,36.0325276534127],[-86.6489948127925,36.0325194227658],[-86.6490093720791,36.0325109839772],[-86.6490237466049,36.032502340688],[-86.6490379341581,36.0324934938113],[-86.6490519292274,36.0324844478835],[-86.6490657273967,36.0324752056321],[-86.6490793242349,36.0324657679825],[-86.6490927175671,36.0324561403542],[-86.6491059007357,36.032446322783],[-86.6491188715732,36.0324363215899],[-86.6491316267507,36.0324261367927],[-86.6491441596476,36.0324157729336],[-86.6491564680669,36.0324052327285],[-86.6491685487167,36.0323945207017],[-86.6491803960564,36.0323836377842],[-86.6491920090206,36.0323725893897],[-86.6492033831858,36.0323613773446],[-86.6492145141507,36.0323500061791],[-86.6492253986158,36.0323384795163],[-86.6492360343768,36.0323267991708],[-86.64924641593,36.0323149705798],[-86.6492565444073,36.0323029964414],[-86.6492664120711,36.0322908804023],[-86.6492760178485,36.032278626975],[-86.6492853606451,36.0322662379679],[-86.6492944338547,36.0322537197258],[-86.6493032374923,36.0322410740511],[-86.6493117682661,36.0322283054682],[-86.6493200239938,36.0322154184953],[-86.6493280002593,36.0322024158601],[-86.6493356970996,36.032189302069],[-86.6493431112226,36.0321760816462],[-86.64935023822,36.0321627582206],[-86.6493570792306,36.0321493353913],[-86.6493636309628,36.0321358176827],[-86.6493698901247,36.0321222096188],[-86.6493758578556,36.0321085147987],[-86.6493815286371,36.0320947368576],[-86.6493869036232,36.0320808811968],[-86.6493919784051,36.0320669514453],[-86.6493967552315,36.0320529511962],[-86.6494012297086,36.0320388858811],[-86.6494054007563,36.0320247591108],[-86.6494092684117,36.0320105753918],[-86.6494128293829,36.0319963392481],[-86.6494160859187,36.0319820542729],[-86.6494190336252,36.0319677258976],[-86.6494216736416,36.0319533577213],[-86.6494240037857,36.0319389542622],[-86.6494260240944,36.0319245200265],[-86.6494277346049,36.0319100595206],[-86.6494674317187,36.0315405842505],[-86.649490924351,36.0313219262729],[-86.6494952557364,36.0312936141262],[-86.6495021219738,36.0312656362127],[-86.6495114887549,36.0312381396271],[-86.6495233029241,36.0312112733685],[-86.6495375046098,36.0311851792614],[-86.6495540139683,36.0311599992379],[-86.6495727466449,36.0311358662418],[-86.6495936005028,36.0311129097069],[-86.6496164644774,36.0310912528066],[-86.6496412163428,36.0310710106627],[-86.6496677216246,36.0310522930552],[-86.6496958413071,36.0310351971707],[-86.6497254241553,36.031019818459],[-86.6497563110354,36.0310062361897],[-86.6497883372145,36.0309945233532],[-86.6498213334481,36.0309847439519],[-86.6498551192936,36.0309769494305],[-86.6498292553565,36.0308911400748],[-86.6498267142396,36.0308827086891],[-86.6497319863672,36.0305684258524],[-86.6491934302626,36.0303418495148],[-86.6491420181017,36.0303202188537],[-86.6487032004995,36.0301356005711],[-86.6487026560429,36.0301353718709],[-86.6486860941859,36.0301285616619],[-86.6486693877916,36.0301219874656],[-86.6486525424222,36.0301156510546],[-86.6486355647497,36.0301095541956],[-86.6486184581171,36.0301036986729],[-86.6486012269846,36.0300980871665],[-86.6485838791263,36.0300927205356],[-86.6485664178853,36.0300876005649],[-86.6485488499334,36.030082729021],[-86.6485311808329,36.0300781076764],[-86.6485134139124,36.0300737365133],[-86.6484955558508,36.0300696181994],[-86.6484776122106,36.0300657545073],[-86.648517938503,36.0294483147673],[-86.6483778681345,36.0294651755952],[-86.6473083061187,36.0292499806764],[-86.6466660004038,36.0293521048985],[-86.6466487498792,36.0293548481806],[-86.6464131464466,36.0294762130211],[-86.6463368277344,36.0294923869294],[-86.6462907340979,36.0295021554228],[-86.6460156242097,36.0295604589974],[-86.6458316219316,36.0295142872291],[-86.6457065902001,36.0295262316156],[-86.6454366421017,36.02971715902],[-86.6451715520335,36.0298772419711],[-86.6450164140011,36.0299709262359],[-86.6449544297878,36.0300083560626],[-86.6448359732792,36.0300798891988],[-86.6447333557013,36.0302040602349],[-86.6442959654915,36.0302634705786],[-86.6441677614557,36.030238481932],[-86.6441674318421,36.0302369677242],[-86.6440809313449,36.0298389968006],[-86.6440796742924,36.0298273696659],[-86.6440808594081,36.0298157384888],[-86.6440844538946,36.0298044378233],[-86.6440903516524,36.0297937936022],[-86.6440983843165,36.0297841158676],[-86.644108317804,36.0297756834681],[-86.6441125368504,36.029772856999],[-86.6441235874293,36.0297669945137],[-86.6441356229749,36.0297625958647],[-86.6441483525116,36.0297597653544],[-86.6444232978895,36.0297178749268],[-86.6447242339508,36.0296720233225],[-86.6447692962031,36.0296651576969],[-86.6454399287741,36.0295313106592],[-86.6463062353902,36.0293995766178],[-86.6463076238411,36.0293925246834],[-86.6463497944071,36.0293863625624],[-86.6470102459745,36.0292898558672],[-86.6473000607656,36.0292306219917],[-86.6473330570598,36.0292251270994],[-86.6479793625584,36.0291308235317],[-86.648316654213,36.0290949123212],[-86.6484804582725,36.0290623323919],[-86.6486723432221,36.0290214416722],[-86.648784829516,36.0289943488701],[-86.6488062749922,36.0289895412678],[-86.6488282077036,36.028986517396],[-86.6488504059963,36.028985309092],[-86.6488726391859,36.0289859293148],[-86.6488946830832,36.0289883711602],[-86.6489163089066,36.0289926088219],[-86.6489197010194,36.0289935774655],[-86.648937298837,36.0289986002113],[-86.6489574348859,36.0290062825113],[-86.6489765122687,36.0290155793142],[-86.649395683387,36.029236291952],[-86.6494707623603,36.0292857782057],[-86.6495445776704,36.0293364933753],[-86.649581947264,36.0293632477064],[-86.6496171047686,36.029388420471],[-86.6496987621907,36.0294495157885],[-86.6497786369915,36.0295121474506],[-86.6498341785297,36.0295577857819],[-86.649856685612,36.0295762805456],[-86.6498323586207,36.0295953613921],[-86.6499796345051,36.0297254632104],[-86.6499881052475,36.0297329468946],[-86.6500135532154,36.0297148513893],[-86.6500814585641,36.0297792779025],[-86.6501476018194,36.0298449035891],[-86.6502119494207,36.0299116952854],[-86.6502525572894,36.0299558124198],[-86.6502744722603,36.0299796216061],[-86.6502795156753,36.0299853590406],[-86.6503351401132,36.0300486502707],[-86.6503642329246,36.0299716708286],[-86.6503721809432,36.0299783200084],[-86.6503963520772,36.0299976934597],[-86.6504208571498,36.0300165171185],[-86.6504460356879,36.0300350613418],[-86.6504712097769,36.0300533315914],[-86.6504970606375,36.0300710483947],[-86.6505232454513,36.0300884884956],[-86.6505497653281,36.0301056518881],[-86.6505766191349,36.0301222645856],[-86.6506041475242,36.0301385987408],[-86.6506316714327,36.0301543840281],[-86.6506598688066,36.0301698898771],[-86.6506880650496,36.0301848495436],[-86.6507169280401,36.0301992513088],[-86.6507457943532,36.030213379958],[-86.6507753308173,36.0302272309884],[-86.6508048639079,36.0302405331439],[-86.6508347275822,36.0302532828177],[-86.6508649296532,36.0302657566639],[-86.6508954656432,36.0302776789113],[-86.6509273496833,36.0302890449821],[-86.6509592371077,36.0303006877224],[-86.6509911211441,36.0303120510725],[-86.6510230074554,36.0303236910982],[-86.6510548937834,36.0303353320165],[-86.6510864450629,36.0303472487294],[-86.6511183314024,36.0303588887297],[-86.6511498827081,36.0303708063272],[-86.6511814329064,36.0303827230211],[-86.6512133215258,36.0303946378776],[-86.651218931639,36.0303968049017],[-86.6512448751045,36.0304068294303],[-86.6512764253314,36.0304187460992],[-86.6513079789294,36.0304309376353],[-86.6513391907965,36.0304431310105],[-86.6513707466329,36.0304553225181],[-86.6514023014029,36.0304677889169],[-86.6514335189024,36.0304802598347],[-86.6514650714172,36.0304924486317],[-86.6514962911669,36.030505191711],[-86.6515275086737,36.0305176599007],[-86.6515587250734,36.030530127187],[-86.6515899448529,36.0305428702419],[-86.6516211646425,36.0305556132886],[-86.6516358348904,36.0305616005335],[-86.6516523833251,36.030568355432],[-86.6516832647222,36.0305811002929],[-86.6517144867879,36.0305941172955],[-86.6517453704587,36.0306071370219],[-86.6517765914352,36.0306201540144],[-86.6518074784549,36.0306331737067],[-86.6518068444588,36.0306386714037],[-86.6516756152392,36.0317107650364],[-86.6527617402324,36.0321795907706],[-86.6526668856341,36.0331492953191],[-86.6545857366608,36.0335366713325],[-86.654544672908,36.03380721565],[-86.6559707070857,36.033819237523],[-86.6559770311833,36.0338477730901],[-86.6559836926021,36.0338763068203],[-86.6559906924597,36.0339048396088],[-86.6559976923148,36.0339333714953],[-86.6560050306016,36.0339619015387],[-86.6560127039424,36.0339901548639],[-86.6560203806743,36.0340186839647],[-86.656028392453,36.0340469354459],[-86.6560367437818,36.0340751859789],[-86.6560450939994,36.034103435616],[-86.6560537826577,36.0341316843108],[-86.6560624690461,36.0341596572225],[-86.6560714961444,36.034187904073],[-86.6560808582911,36.0342158733037],[-86.6560902215615,36.0342438434285],[-86.6560999254857,36.0342718116976],[-86.6561099645085,36.0342997772397],[-86.656121340324,36.0343260879434],[-86.6561330545257,36.0343521219096],[-86.656144768735,36.0343781558746],[-86.6561564840468,36.0344041880297],[-86.6561685389342,36.0344302219395],[-86.6561805893837,36.0344562549708],[-86.6561929793721,36.0344822852504],[-86.6562053682091,36.0345080406414],[-86.6562177593233,36.0345340709122],[-86.6562301481763,36.0345598263004],[-86.6562428743572,36.03458557985],[-86.6562556016633,36.0346113342933],[-86.6562686673998,36.0346370859905],[-86.6562817320351,36.0346628376923],[-86.6562947966789,36.0346885893925],[-86.6563081986085,36.0347140652619],[-86.6563768745539,36.0348389605653],[-86.656390963621,36.0348658053463],[-86.6564047142745,36.0348926528704],[-86.6564181287689,36.0349197762163],[-86.6564315432577,36.0349468977581],[-86.6564446193618,36.0349740256482],[-86.6564576965622,36.0350011508269],[-86.6564704342306,36.035028277854],[-86.6564828368561,36.0350556815984],[-86.6564952394903,36.0350830853414],[-86.6565073037014,36.0351104909269],[-86.6565193679209,36.035137896511],[-86.6565310959871,36.0351655788189],[-86.6565862442564,36.0352905477019],[-86.6568177712708,36.0358035501255],[-86.6568432609493,36.0358605520492],[-86.6570962070418,36.0364261815015],[-86.6571314004856,36.0364281878204],[-86.6571421090986,36.0364553258358],[-86.6571528165559,36.0364821889631],[-86.657164200903,36.0365090492989],[-86.6571752457031,36.0365359105841],[-86.6571869707225,36.0365627690594],[-86.6571986879214,36.0365893517815],[-86.6572107480657,36.0366162084265],[-86.6572228059378,36.0366427892879],[-86.6572352022636,36.0366693692032],[-86.6572479336536,36.0366956723962],[-86.6572606661615,36.0367219755816],[-86.6572737382724,36.036748550905],[-86.6572871454016,36.0367745755142],[-86.6573005537031,36.0368008750086],[-86.6573142981791,36.0368268977742],[-86.6573280426642,36.0368529205381],[-86.6573421256049,36.0368789423553],[-86.6573565458768,36.0369049614291],[-86.6573709649945,36.0369307056141],[-86.6573857214513,36.0369564479568],[-86.6574008174668,36.0369821884449],[-86.6574159101165,36.0370076549575],[-86.6574313412081,36.0370331187203],[-86.6574457569975,36.0370585889219],[-86.657460514612,36.0370843312486],[-86.6574752688526,36.0371097986985],[-86.6574900242198,36.0371352670417],[-86.6575047807531,36.0371610093686],[-86.6575198734701,36.037186475867],[-86.6575346288583,36.037211943303],[-86.6575497193206,36.0372371349166],[-86.6575648120589,36.0372626005078],[-86.6575799025951,36.0372880670102],[-86.6575953337388,36.0373132558573],[-86.6576104276233,36.0373387223375],[-86.6576258565673,36.0373639111925],[-86.6576412855285,36.0373891009467],[-86.6576567167738,36.0374145655795],[-86.6576724841887,36.0374397525809],[-86.6576879098505,36.0374649423467],[-86.6577036795045,36.0374901293317],[-86.6577194446821,36.0375150423469],[-86.6577355505861,36.0375402283933],[-86.6577513180583,36.0375654162849],[-86.657767418379,36.0375903274641],[-86.6577831858083,36.037615239557],[-86.6577992917528,36.0376404255943],[-86.6578157305461,36.037665334919],[-86.6578318364554,36.0376902460588],[-86.6578476039804,36.0377154330356],[-86.6578630353552,36.0377408976402],[-86.6578784667324,36.0377663613414],[-86.657893559684,36.0377918277896],[-86.6579086549129,36.0378175682153],[-86.6579234105429,36.0378430356],[-86.6579381673555,36.0378687787709],[-86.6579522506684,36.0378947996095],[-86.6579666701585,36.0379205437172],[-86.6579804150463,36.0379465664002],[-86.6579941599431,36.0379725890815],[-86.6580079071244,36.0379988866419],[-86.6580209751513,36.0380249130161],[-86.6580343839065,36.0380512124214],[-86.6580471168919,36.0380775155155],[-86.6580598510443,36.0381040925937],[-86.6580722456021,36.0381303975332],[-86.658084642444,36.0381569773521],[-86.6580963578533,36.0381830111047],[-86.6581084117149,36.0382090430075],[-86.6581211424741,36.038235071212],[-86.6581342083009,36.0382608226917],[-86.6581476114224,36.0382862983356],[-86.6581616869967,36.0383117694037],[-86.6581761043273,36.0383369673153],[-86.6581908555721,36.0383618831001],[-86.6582062826298,36.0383867978952],[-86.6582220447569,36.0384114359648],[-86.6582384848948,36.0384360703284],[-86.6582552601026,36.0384604279661],[-86.6582723714901,36.0384845088715],[-86.6582898190499,36.0385083121434],[-86.6583460452443,36.0385994867302],[-86.6583487790041,36.0386027678093],[-86.65835424432,36.0386093317817],[-86.6583631202831,36.0386191722329],[-86.6583719962559,36.0386290135848],[-86.6583812106774,36.0386388530867],[-86.6583904217147,36.0386484177132],[-86.658399633849,36.0386579805303],[-86.6584091833523,36.0386675451086],[-86.6584187339527,36.0386771078775],[-86.6584282844976,36.0386863957526],[-86.6584381701701,36.0386956826971],[-86.6584495587559,36.0387233657559],[-86.6584609518535,36.0387513245834],[-86.6584723437917,36.0387790085227],[-86.6584837369053,36.0388069673477],[-86.6584951277423,36.0388346503894],[-86.6585065219815,36.0388626092058],[-86.6585182512894,36.0388902912966],[-86.6585296432451,36.0389179725259],[-86.6585413725916,36.0389456573179],[-86.6585527657683,36.0389736179377],[-86.6585644950864,36.0390012973196],[-86.6585762255446,36.0390289793978],[-86.6585828837831,36.0390569640902],[-86.6585898804673,36.0390849460311],[-86.6585965387152,36.0391129307224],[-86.6586031969679,36.0391409154131],[-86.6586095178787,36.0391689010459],[-86.6586161806376,36.0391971606042],[-86.6586224982359,36.0392251471553],[-86.6586288191601,36.0392531327866],[-86.6586351367673,36.0392811193367],[-86.6586414621975,36.0393093798355],[-86.6586474435835,36.0393373682225],[-86.6586537645329,36.0393653547528],[-86.6586597481977,36.0393936171183],[-86.6586657273546,36.0394216028122],[-86.658671377039,36.0394498697063],[-86.6586773617751,36.0394778580726],[-86.6586830047872,36.0395061222984],[-86.6586886488619,36.039534112526],[-86.658694295211,36.0395623767327],[-86.6586985854913,36.0395903743599],[-86.6587035526536,36.0396183655827],[-86.6587088583075,36.0396463594614],[-86.658714007641,36.0396702199808],[-86.6593314034143,36.0411826132166],[-86.6594712800372,36.041525253257],[-86.6594510769405,36.041528320949],[-86.6590827572567,36.0415842817591],[-86.65790494257,36.0417632282636],[-86.6571091205729,36.0418841315088],[-86.6565134861001,36.0419746182876],[-86.6566015130087,36.0427536188825],[-86.6566354577184,36.0430540081701],[-86.6563938775647,36.0433307778273],[-86.6563113022568,36.0432829113292],[-86.6559873291158,36.0430951092103],[-86.6545031262106,36.0422347216495],[-86.6530211565951,36.0413755952562],[-86.652972331487,36.041347289896],[-86.6518864402125,36.0407160438977],[-86.6495600707455,36.0393636214339],[-86.649672621753,36.0386498582589],[-86.6496732717079,36.0386465587415]]],[[[-86.6395945391912,36.0303425954005],[-86.6408192596583,36.0301106120442],[-86.6408730386088,36.0302573822765],[-86.6408695755788,36.0302591726327],[-86.6408406128909,36.030274438613],[-86.6408119907974,36.0302899749642],[-86.6407833686853,36.0303055104074],[-86.6407547465694,36.030321046745],[-86.6407264639564,36.030337131057],[-86.6406985230649,36.0303532126439],[-86.6406705866004,36.0303692942007],[-86.6406426445802,36.0303856515751],[-86.6406150464971,36.0304022811063],[-86.6405874495078,36.0304191855187],[-86.6405598525214,36.0304360917272],[-86.6405325938991,36.030452991624],[-86.6405308585421,36.030454099522],[-86.6405056759138,36.030470167301],[-86.6404787601317,36.0304876178535],[-86.6404518443306,36.0305050674987],[-86.6404252691445,36.0305227902206],[-86.6403990345735,36.0305407860196],[-86.6403724604758,36.0305587845185],[-86.6403465665006,36.0305770524877],[-86.6403206680824,36.030595321376],[-86.6402947785166,36.0306138642037],[-86.6402692240302,36.0306324061463],[-86.640243672848,36.030651222058],[-86.640077009264,36.0307861681225],[-86.6397205024135,36.030458405758],[-86.6395945391912,36.0303425954005]]]]},"properties":{"OBJECTID":3,"Name":"South Nashville Business Improvement District","Ordinance":"BL2018-1140","OrdinanceDate":"Wed, 18 Apr 2018 06:00:00 GMT","GlobalID":"bf88ebf1-6d5c-4a8a-af14-9535b96631ed"}}]}