{"type":"FeatureCollection","crs":{"type":"name","properties":{"name":"EPSG:4326"}},"features":[{"type":"Feature","id":1,"geometry":{"type":"Polygon","coordinates":[[[-86.790314940486,36.1656328842523],[-86.7890222565434,36.1661887280977],[-86.7889726839612,36.1664259031033],[-86.7888013607024,36.1668217726366],[-86.7886289863345,36.1671123840865],[-86.7884495991146,36.1673504060433],[-86.7881675578168,36.1677101529747],[-86.7878721877371,36.1680222009153],[-86.7871619158024,36.1684632197665],[-86.786863234754,36.1685939361095],[-86.7856114396984,36.1691457816401],[-86.7853567596205,36.1692654763901],[-86.7851103355023,36.1693278881409],[-86.7845824430378,36.1694779733614],[-86.7843886325993,36.1695078483024],[-86.7842305721777,36.169583991601],[-86.784172309639,36.1694913700512],[-86.7835684297941,36.1696109624661],[-86.782987954343,36.1697279819181],[-86.7827721250082,36.1697615724206],[-86.782296172474,36.1698111599946],[-86.7813684680659,36.1701283590323],[-86.7795765669976,36.1673499516933],[-86.7796820120595,36.1673063476597],[-86.7793864186093,36.166853989432],[-86.7802913679192,36.166468989381],[-86.780631496095,36.1669639803588],[-86.7807642855611,36.1670096224001],[-86.7809439477987,36.1669337304513],[-86.780912754405,36.1668936509699],[-86.7809345158227,36.1668838431598],[-86.7806664115365,36.1664772937553],[-86.7805680679245,36.1663455847757],[-86.7819429009694,36.1657464930265],[-86.7833402771598,36.1678800069058],[-86.783442052133,36.167911536948],[-86.7836144721338,36.1679497652456],[-86.7838088078643,36.1679735406329],[-86.7839985932308,36.1679830403267],[-86.7841837894028,36.1679746829579],[-86.7843644316303,36.1679520472562],[-86.7844788732895,36.1679262644395],[-86.7845493891694,36.1678887594402],[-86.7846153453796,36.1678668687816],[-86.7846683138925,36.167870100673],[-86.7847127072529,36.167898427345],[-86.7847307760852,36.1679412327996],[-86.7848627558874,36.1679046059838],[-86.7850651007785,36.1678460585412],[-86.7852804295121,36.1677623899314],[-86.7854912058961,36.16766444021],[-86.7856711067345,36.1675666938056],[-86.7859782177647,36.1673965778621],[-86.7862590377769,36.1672445189806],[-86.7864083054826,36.1671720073624],[-86.7865490693397,36.1671317452119],[-86.7866767763444,36.167109451884],[-86.7868399512238,36.1671048101881],[-86.7869018129291,36.167115138297],[-86.7869930951845,36.1669786209104],[-86.7870099245978,36.1668962406095],[-86.7870481354411,36.1667457606655],[-86.785582671613,36.1644267340017],[-86.7856881094905,36.164383124687],[-86.7855671388623,36.1641943336282],[-86.7856199290381,36.1641796823527],[-86.7853690597507,36.1637914320412],[-86.7859840673515,36.1635334658848],[-86.7857331640036,36.1631416375429],[-86.7856302257454,36.1629920776508],[-86.7855052357288,36.1628426602916],[-86.7854428819499,36.1627822592086],[-86.7858686789962,36.1625720257901],[-86.786428606941,36.1634339944539],[-86.7866702826162,36.1633394191715],[-86.7868538216241,36.1636100692053],[-86.7876006874094,36.1633047357877],[-86.7875334258362,36.1631942887268],[-86.7876827557659,36.1631289292738],[-86.7877500174914,36.1632393762534],[-86.7884306443571,36.1629273165699],[-86.7886187772289,36.1632158169775],[-86.7884781990636,36.163273966132],[-86.7885768019141,36.1634307071329],[-86.7886986305464,36.1637053347313],[-86.7888420533323,36.164376859368],[-86.7889224812475,36.1644800626347],[-86.7893662066569,36.1642232537248],[-86.790314940486,36.1656328842523]]]},"properties":{"OBJECTID":1,"DistrictName":"CAPITOL HILL REDEVELOPMENT DISTRICT","GlobalID":"73bf53c0-49f4-4d2a-8720-e9aaf3a432f7"}},{"type":"Feature","id":2,"geometry":{"type":"Polygon","coordinates":[[[-86.6737173499955,36.106639907621],[-86.6724072873476,36.1060129082917],[-86.6709805138868,36.1054819270497],[-86.6699546736571,36.1051013199046],[-86.6696655005276,36.1049598484419],[-86.6685452010484,36.1045272932496],[-86.6679904027448,36.1054445178259],[-86.6534116096394,36.1413094859859],[-86.6534412436801,36.1413379407068],[-86.6524261160369,36.1415914318912],[-86.6518922102809,36.1417326259881],[-86.6513878165098,36.1418879650837],[-86.6509539793669,36.1420429196164],[-86.6503913724625,36.1422701074461],[-86.6498875568961,36.1424969759761],[-86.6496006650488,36.1426463654275],[-86.6472640647518,36.1423680011863],[-86.6471648512035,36.1424591475248],[-86.6458642826607,36.1423230403299],[-86.6612129743349,36.1026981666043],[-86.6618221988535,36.1017552798774],[-86.6625003598384,36.1020329436198],[-86.663272590099,36.1023148539662],[-86.6657308770332,36.103221775304],[-86.6659114586859,36.103030008848],[-86.6677512112666,36.1037590725624],[-86.6695618540061,36.1045168826888],[-86.6695386289094,36.1045503975904],[-86.6716325273475,36.1054401449199],[-86.6719029845276,36.1054529461817],[-86.67346614808,36.1061262307084],[-86.6744511743909,36.1044657933061],[-86.6746999084183,36.1039970136921],[-86.6748612166515,36.1036145693288],[-86.6749470172167,36.103337473021],[-86.6751565092746,36.1024015252024],[-86.675322067013,36.1018282857028],[-86.6754430436255,36.101541452797],[-86.675666824145,36.1011201518992],[-86.6759388207835,36.100767935355],[-86.6768384730096,36.099778537824],[-86.6770186508061,36.0995438324089],[-86.6772618028165,36.0991132327864],[-86.6773538747353,36.0988837911646],[-86.6775027949993,36.09842987332],[-86.6798430239526,36.098583627441],[-86.6798422075258,36.098488246209],[-86.6805361508436,36.0985463318278],[-86.6809355826383,36.0985250005771],[-86.6812639239552,36.0984372993699],[-86.6815333778094,36.0983356223012],[-86.6832847511552,36.0976675512581],[-86.6837253366351,36.0942359438908],[-86.6822775093261,36.0932902912444],[-86.6828057751398,36.0932205297902],[-86.683321877077,36.0931031437567],[-86.6839077499132,36.0928995129466],[-86.6843876495692,36.0926726329324],[-86.6848494642036,36.0923933929221],[-86.6853059764727,36.0921809507356],[-86.6855853998368,36.092126815036],[-86.6857651511227,36.0920469345269],[-86.685933064855,36.0922036952709],[-86.6864077897408,36.0925276914509],[-86.6873548118751,36.0928940575073],[-86.6878568150026,36.0931615652217],[-86.6883452374107,36.0934629445521],[-86.6893643167521,36.0941330499833],[-86.6897305004789,36.0943898457901],[-86.6827615975128,36.11003815906],[-86.6889623787225,36.1126556366116],[-86.6902754545359,36.1040619078393],[-86.6906202457175,36.1022842180819],[-86.6906578218506,36.102002486999],[-86.6907834208546,36.1011030836683],[-86.6908708764142,36.1004204477087],[-86.6964125795823,36.1009595592012],[-86.6958265910415,36.1035081634827],[-86.6961659479239,36.1035379569973],[-86.6959719191438,36.1044651576745],[-86.696686552876,36.1045298259658],[-86.6964880273159,36.1056872520823],[-86.6966010069888,36.106300459467],[-86.6958571682937,36.1069979924465],[-86.6956484802356,36.107369629264],[-86.6956039693935,36.107499537371],[-86.6955108026227,36.1076588318912],[-86.6954798895392,36.1078521627778],[-86.695400879608,36.1081383807613],[-86.6950889815103,36.1086402619616],[-86.6946958169231,36.1087986382483],[-86.6946079662109,36.1088203125195],[-86.6946773871045,36.108928395723],[-86.6946931104671,36.1088621577761],[-86.6952837723594,36.1089551194933],[-86.6954569004978,36.1089503620786],[-86.6957048909006,36.1089701010098],[-86.6956411722007,36.1098855398584],[-86.69466250975,36.1096372162896],[-86.6941613280797,36.112454016885],[-86.6929757372471,36.1143198446233],[-86.6934656722101,36.1145100422432],[-86.6924653453398,36.1160903597842],[-86.6909825677572,36.1154690336643],[-86.6917852634963,36.1141946164281],[-86.6737173499955,36.106639907621]]]},"properties":{"OBJECTID":2,"DistrictName":"CENTRAL STATE REDEVELOPMENT DISTRICT","GlobalID":"f1efff32-ab92-4312-b70e-45e71812b827"}},{"type":"Feature","id":3,"geometry":{"type":"Polygon","coordinates":[[[-86.7656418685988,36.1702977690644],[-86.766212912971,36.1712879831648],[-86.7671456276676,36.1709999559253],[-86.7680458656155,36.1706246429868],[-86.7674137885748,36.1695306118008],[-86.76684365755,36.1690467038632],[-86.7663347111635,36.1681228701491],[-86.7662617729813,36.1681511193029],[-86.7658860027542,36.1674676784958],[-86.7664043833146,36.1672724062464],[-86.7661427590133,36.1667953769051],[-86.7662001822883,36.1667735396791],[-86.765949697916,36.1663204390171],[-86.7662414828097,36.1662112270131],[-86.765595091902,36.1650849135222],[-86.7677103219359,36.1642757655308],[-86.7673806407636,36.1636867606611],[-86.7689559626196,36.163103317149],[-86.7688085944163,36.1628440695708],[-86.7691337047623,36.1623178380945],[-86.7693498112371,36.1624377120183],[-86.7694124404019,36.1624714149823],[-86.7694954414898,36.1625176184119],[-86.7695909881313,36.1625725823349],[-86.7696943947804,36.1626350757282],[-86.7697664812514,36.1626800849997],[-86.7698291853927,36.1627213642382],[-86.770372014586,36.1619231036814],[-86.7703818101312,36.1619241740499],[-86.7703958296993,36.1619286197457],[-86.770409852577,36.161933062715],[-86.7704225136624,36.161941484467],[-86.7704351945942,36.161951606786],[-86.7704422830598,36.1619617621008],[-86.7704479778169,36.1619724941121],[-86.7704551323175,36.1619894508838],[-86.7704629671614,36.1620047044192],[-86.7704714746583,36.1620171191681],[-86.7704789226866,36.162027331669],[-86.7704884467514,36.1620374146521],[-86.7705067718244,36.162053166309],[-86.770523661394,36.162064960642],[-86.7705454476447,36.1620772906078],[-86.7705622877054,36.1620839849689],[-86.7705777076215,36.1620884189989],[-86.7705966503614,36.1620956668282],[-86.7706135102081,36.1621046268467],[-86.7706240763951,36.1621130619536],[-86.7706360516984,36.1621226209574],[-86.7706473543513,36.1621350178457],[-86.7706572820156,36.1621496902049],[-86.7706644310633,36.162166079199],[-86.7706736607887,36.1621807560137],[-86.7706849854845,36.1621954212522],[-86.7706984128362,36.162210637257],[-86.7707244749596,36.1622314424592],[-86.7707420636485,36.1622432313956],[-86.7707561031265,36.1622493758151],[-86.7707765012391,36.1622628474996],[-86.7707926819437,36.1622735134266],[-86.770807457919,36.1622836214247],[-86.7708264777759,36.1622988016971],[-86.7708426727816,36.1623111673198],[-86.770861103135,36.1623279033374],[-86.7708764243507,36.1623421933388],[-86.7708920394588,36.1623567599531],[-86.7709068672357,36.1623719687919],[-86.7709203001753,36.1623877525356],[-86.7709295057327,36.1624001627926],[-86.7709415416653,36.1624159545564],[-86.7709585073456,36.1624356831161],[-86.7709754466013,36.1624525764493],[-86.7709937718932,36.1624683307342],[-86.7710120971661,36.1624840823126],[-86.771037417461,36.1625003579007],[-86.7710627377576,36.1625166325821],[-86.7710936306898,36.1625311709593],[-86.7711273165811,36.1625451236838],[-86.7711679798596,36.1625578989204],[-86.7712016052231,36.1625656206358],[-86.7712514300812,36.1625862711742],[-86.7712885958731,36.1625990687204],[-86.7713180456335,36.162608515981],[-86.7713650490035,36.1626263527167],[-86.7714352359451,36.1626565094069],[-86.7714857919446,36.1626805574665],[-86.7715440971411,36.1627107891436],[-86.771591899977,36.1627388221462],[-86.771634801684,36.1627663204685],[-86.7716749082638,36.1627938348448],[-86.7717178519416,36.1628253002561],[-86.7717763513415,36.1628753666121],[-86.7718228907096,36.1629175782574],[-86.7718553716827,36.1629513745171],[-86.7718708668063,36.1629637444776],[-86.7718856342604,36.162972720404],[-86.7719059831266,36.1629810901278],[-86.7719256098348,36.1629866326796],[-86.7719396076123,36.1629888098415],[-86.7719563928426,36.1629898353762],[-86.7719710864031,36.1629914420871],[-86.7719907131185,36.1629969846282],[-86.7720096528789,36.1630042331565],[-86.7720307482737,36.1630171323691],[-86.7720554294087,36.1630396450096],[-86.7720814976575,36.1630610149747],[-86.772108970695,36.1630829446479],[-86.7721294541701,36.1631049154266],[-86.7721443242252,36.1631246590284],[-86.772153592936,36.1631433028658],[-86.7721656314152,36.1631596622899],[-86.7721783513392,36.1631737488584],[-86.7721945577658,36.1631872480227],[-86.7722079249166,36.1631962301653],[-86.7722227343316,36.1632097382642],[-86.7722284195069,36.163219337356],[-86.7722341388657,36.1632323349147],[-86.772237071907,36.1632464868016],[-86.7722379430428,36.1632640505673],[-86.7722464586506,36.1632775989341],[-86.772259151035,36.1632888520801],[-86.7722724906544,36.1632950026041],[-86.7722885923249,36.1632977331616],[-86.7723025659182,36.1632970759452],[-86.7723221629344,36.1632997850327],[-86.7723431999725,36.1633070173839],[-86.7723635567388,36.1633159565822],[-86.7723846644198,36.1633299894506],[-86.7723973645501,36.1633423781317],[-86.7724093898917,36.1633570369204],[-86.772417203159,36.1633700210692],[-86.7724229280945,36.1633835872836],[-86.7724272747522,36.1633994308132],[-86.7724273960943,36.1634118972916],[-86.7724248270994,36.1634351511536],[-86.7724256817349,36.1634510152295],[-86.7724307947439,36.1634736521263],[-86.7724368873399,36.1634882209018],[-86.7724457686412,36.163504163388],[-86.7724591976634,36.1635193791844],[-86.7724697807797,36.1635295138141],[-86.7724818227256,36.1635458740848],[-86.7724944627494,36.1635673830813],[-86.7725024366086,36.1635814468178],[-86.7725124298945,36.1636029204795],[-86.7725175407715,36.16362499229],[-86.7725232679092,36.1636391235806],[-86.7725339073442,36.1636549268261],[-86.7725459537031,36.1636718512562],[-86.7725635915285,36.1636887407945],[-86.7725868252313,36.1637061623085],[-86.7725987623887,36.1637117539746],[-86.7726354638334,36.1637483592977],[-86.7726524313222,36.163768086704],[-86.7726701210881,36.1637900779778],[-86.7726878240705,36.1638137680564],[-86.7727105430911,36.1638498959755],[-86.772725496182,36.1638781379384],[-86.7727398065207,36.1639120529964],[-86.7727533449374,36.1639386042199],[-86.7727711086982,36.1639685297765],[-86.772795187306,36.1640006806862],[-86.772823413997,36.1640282707455],[-86.772853020088,36.1640541530732],[-86.7728762440312,36.164070440797],[-86.7729036690514,36.1640872676098],[-86.7729247284446,36.1640967682106],[-86.7729324900263,36.1641040872789],[-86.7729374541836,36.1641114224597],[-86.7729410544323,36.164122167764],[-86.7729418892979,36.1641363330686],[-86.7729437914302,36.1641455030147],[-86.7729483421622,36.164152728184],[-86.7729561059299,36.1641606132336],[-86.7729659514615,36.1641667833545],[-86.772975779345,36.1641712555969],[-86.7729918734909,36.1641728505106],[-86.773005838394,36.1641716281739],[-86.7730198287007,36.164172671463],[-86.7730436292186,36.1641764864061],[-86.7730618526477,36.1641814726661],[-86.773084988323,36.164188691446],[-86.77310676563,36.164199888111],[-86.7731236383549,36.1642099805909],[-86.7731405640794,36.1642257408092],[-86.7731568404749,36.1642460403701],[-86.7731795520957,36.1642816022494],[-86.7732128614175,36.1643284305881],[-86.7732496628269,36.1643752365443],[-86.7733012232898,36.1644304495946],[-86.7733491790818,36.16447434956],[-86.7733921629957,36.1645097814992],[-86.7734457722581,36.1645598783739],[-86.7734888468382,36.1646049451628],[-86.7735206732248,36.1646432803481],[-86.773569550454,36.1647098466384],[-86.7736079183627,36.1647736439778],[-86.7736335824693,36.1648250563855],[-86.7736485846896,36.1648583990965],[-86.7736622186068,36.1648945841656],[-86.7736717221351,36.1649375975854],[-86.7736847133637,36.1649794548505],[-86.7737125610048,36.1650399200058],[-86.7737544290358,36.1651042635575],[-86.7737933206329,36.1651504899457],[-86.7738370682698,36.1651927159986],[-86.773872952511,36.1652168562243],[-86.7739209035838,36.1652601908931],[-86.7739569636409,36.165302466197],[-86.7739810818265,36.1653385839954],[-86.7739974437933,36.1653679532591],[-86.7740089187703,36.1653979162527],[-86.774017615138,36.1654296004622],[-86.7740435063504,36.1655042469283],[-86.7740756650632,36.1655765865],[-86.7741077143872,36.1656375924093],[-86.7741417990839,36.1656923493766],[-86.7741572973219,36.1657047190201],[-86.7741827974298,36.1657377726111],[-86.7742120529614,36.1657957402096],[-86.7742304920603,36.1658479631025],[-86.774241759095,36.1659002292965],[-86.7742637269649,36.1659466127588],[-86.774282025391,36.1659842972798],[-86.7743111097302,36.1660248173903],[-86.7743475920738,36.1660885553765],[-86.7743731750255,36.1661378231161],[-86.7743842730723,36.1661726445226],[-86.7744099979334,36.1662364488046],[-86.7744214092699,36.1663032560191],[-86.7744400472445,36.1663758309449],[-86.7744623569775,36.1664571038813],[-86.774495335929,36.1665295867739],[-86.7745245352108,36.166581737862],[-86.7745574892277,36.1666513134038],[-86.7746011430637,36.1667150034804],[-86.7746411263131,36.1667699946231],[-86.7746667085554,36.1668192622986],[-86.7746957661258,36.1668568749904],[-86.7747321072323,36.1669060753968],[-86.7747648628347,36.166955296104],[-86.7747868324139,36.1670016794509],[-86.7748052721448,36.1670538995354],[-86.7748163410372,36.1670858162949],[-86.7748239117582,36.1671264743802],[-86.7748351498924,36.1671758359022],[-86.7748428342015,36.1672281250252],[-86.7748576294842,36.1672745535124],[-86.7748758149324,36.1673006077916],[-86.7748977551616,36.1673440829107],[-86.7749230855275,36.167367181115],[-86.7749450269213,36.1674106571188],[-86.774970723139,36.1674715548593],[-86.774985549167,36.1675208915238],[-86.7749858047344,36.1675470600092],[-86.774996819177,36.1675731594119],[-86.7750150331251,36.1676021200759],[-86.7750475029922,36.167622265819],[-86.7750764179505,36.1676453427745],[-86.7751091183694,36.1676887469511],[-86.7751346444003,36.1677321998975],[-86.7751458293315,36.1677757449409],[-86.7751533685795,36.1678134984142],[-86.7752195048851,36.1679759057725],[-86.7752199025598,36.1680166125999],[-86.7752275588102,36.1680659952792],[-86.7752422998998,36.1681066099785],[-86.7752750825131,36.1681587396566],[-86.7752937512206,36.1682342217158],[-86.7753008611899,36.1683303025969],[-86.7753262924795,36.1683856420292],[-86.7753705903275,36.1684610459583],[-86.7754207673336,36.1685010896024],[-86.7754777558526,36.1686016393532],[-86.7755410684715,36.168712239037],[-86.7755732152291,36.1688179963573],[-86.7752353632054,36.1689513229345],[-86.7749435095889,36.1690786653306],[-86.774493943371,36.1692749197264],[-86.7740023171816,36.1694522532541],[-86.77401150548,36.1694610510906],[-86.7735270753882,36.1696294797558],[-86.7735251828469,36.169622112305],[-86.7733965203331,36.1696731707442],[-86.7734135084597,36.1696925851494],[-86.7734153693158,36.1697111862043],[-86.7731005884947,36.1697757634157],[-86.7727872516737,36.169897127535],[-86.7726246959811,36.1699661309717],[-86.7715522865052,36.1703771804543],[-86.7712970609071,36.1704431963829],[-86.7698154656485,36.1709677299292],[-86.7685717834793,36.1714621151999],[-86.7676533147949,36.1718292291856],[-86.7671654887867,36.1720219058138],[-86.7661804827404,36.1718958175823],[-86.7656530205624,36.1720958930094],[-86.7655109301112,36.1724580632772],[-86.7655789659112,36.1726507848699],[-86.765170223684,36.17281076028],[-86.7655428228682,36.1734772787604],[-86.7655875932623,36.1735449565836],[-86.7656416691793,36.1736626506103],[-86.7655845608473,36.1736880527111],[-86.7656071370183,36.1737415618883],[-86.7656299860053,36.1738236872313],[-86.765639672219,36.1739130467049],[-86.7656406730864,36.1740167715686],[-86.763539500228,36.1748098470797],[-86.7634188428154,36.1746496477943],[-86.7633336131102,36.1745035355496],[-86.7631944495638,36.1742540312744],[-86.7613132737329,36.1749884462743],[-86.7611593496236,36.1750394930923],[-86.7555959634086,36.1772015527873],[-86.7554055867253,36.1772718559639],[-86.7539374014583,36.177839030974],[-86.7538934213387,36.1778536132225],[-86.7531373971195,36.1781516380809],[-86.7529433171688,36.1781564241146],[-86.7524816826244,36.1783274181352],[-86.7524379043737,36.1783634603893],[-86.7519762369613,36.1785308746402],[-86.7518844372015,36.178620867164],[-86.7516079908341,36.1787799728332],[-86.7513525588863,36.1783630664968],[-86.7515543453504,36.1782401965051],[-86.7516773560484,36.1781413784721],[-86.7518052408376,36.17804030293],[-86.7521672907408,36.1779043441041],[-86.7518608481273,36.1773818805733],[-86.7522682657182,36.1772234857419],[-86.751972284258,36.1767174097967],[-86.7547109197203,36.1756701710083],[-86.755191553258,36.1761071246138],[-86.7569322929251,36.1754416472698],[-86.7566274648198,36.1749356387258],[-86.7560648707758,36.1751573556474],[-86.7557694918248,36.1746593250384],[-86.7584151546858,36.1736474664389],[-86.7581633920444,36.1732174544673],[-86.7598455926498,36.1725741159549],[-86.7598044075933,36.172501039201],[-86.7603339513292,36.1722959905475],[-86.7603479483324,36.172320918819],[-86.7603653765859,36.1723417625667],[-86.7603922504529,36.1723597510812],[-86.7604268660473,36.1723762947566],[-86.7604613924238,36.1723837596302],[-86.7604915592158,36.172385664112],[-86.7605199641125,36.1723833906029],[-86.7605534840319,36.1723754970082],[-86.7605843649852,36.1723620321834],[-86.7606108874598,36.1723430087684],[-86.7606338950289,36.1723170226851],[-86.7606474000732,36.1722883016539],[-86.7606529622171,36.1722611420989],[-86.7621568721187,36.1716807645148],[-86.7623120560009,36.1716191590545],[-86.7643142361939,36.1708575188258],[-86.7637220225276,36.1698584188803],[-86.7650131789419,36.1693526067963],[-86.7650592627303,36.1694470423784],[-86.7650912444895,36.1695327268031],[-86.7651185746547,36.1696209660547],[-86.7651364155939,36.1696941079437],[-86.7651667539822,36.1697709613322],[-86.7652015934904,36.1698301024166],[-86.7652507578372,36.169920727658],[-86.7654406216375,36.1702251785296],[-86.765511897506,36.1703472411214],[-86.7656418685988,36.1702977690644]]]},"properties":{"OBJECTID":3,"DistrictName":"EAST BANK REDEVELOPMENT DISTRICT","GlobalID":"48070944-ab67-4143-a7fc-72fbf590fe30"}},{"type":"Feature","id":5,"geometry":{"type":"Polygon","coordinates":[[[-86.7952543902186,36.1792735962057],[-86.7947684008352,36.1794813619026],[-86.7948963961398,36.1796954676593],[-86.7944070102551,36.1799154375426],[-86.794012920266,36.1793167295082],[-86.7914712447854,36.1804311435547],[-86.7912908426676,36.1805022464544],[-86.7892620064208,36.1820257724421],[-86.7891511465987,36.1821523490399],[-86.7882047463448,36.1806482880503],[-86.7888038304219,36.1801829113494],[-86.7880939794307,36.179047873046],[-86.7875271749059,36.1792892964592],[-86.7873987896351,36.17938802049],[-86.7863939690426,36.1798140819908],[-86.7857369386464,36.1787835635049],[-86.7863209915918,36.1785420370238],[-86.7861535959104,36.1782884483458],[-86.7867300062956,36.1780429490436],[-86.7871767459015,36.1787392247914],[-86.7877265081269,36.1785188902577],[-86.7875861704045,36.17828208159],[-86.7881444154394,36.1780477056981],[-86.7875662358521,36.1771425364717],[-86.78700799546,36.1773769079451],[-86.786202094331,36.176116632153],[-86.7856419369318,36.1763409670637],[-86.7858542122635,36.1766922302826],[-86.7847118566792,36.1771611257208],[-86.7839584887346,36.1759774023148],[-86.7839268100225,36.1759904294725],[-86.7835914768181,36.1754903541578],[-86.7834333564518,36.1751977206847],[-86.7820567999964,36.1755282740742],[-86.7820559041744,36.1754373862159],[-86.7814366073027,36.1756022081904],[-86.7813485819932,36.175420990696],[-86.7813377564846,36.1751973185744],[-86.7813710100406,36.1750712513168],[-86.781490773469,36.1749725885031],[-86.7815504479477,36.1749022854593],[-86.7815325801398,36.1748394719845],[-86.781454559345,36.1747980276395],[-86.7812903730739,36.1747641294107],[-86.7811784093974,36.1747788390104],[-86.7810485094661,36.1747237442754],[-86.7809782855571,36.1745983439222],[-86.7808903312158,36.1744241176286],[-86.7807642554051,36.1742200634703],[-86.7806106748468,36.1740483649883],[-86.7803111606976,36.1734070482879],[-86.7802220415395,36.1731139644641],[-86.7799294528098,36.1726942127686],[-86.7796877234727,36.1722714000793],[-86.7794841965849,36.1720012636426],[-86.77948589235,36.1719161180612],[-86.7793190349536,36.1716095541181],[-86.7791847035495,36.1714512791269],[-86.7791095451458,36.1713522057532],[-86.7796333407742,36.1711250839237],[-86.7798435210066,36.1714523445837],[-86.7798240063024,36.1712217371229],[-86.7799083814727,36.1710324106252],[-86.780225293706,36.1708136148036],[-86.7805086107014,36.1706859300429],[-86.7806720315529,36.170642920964],[-86.7815394915667,36.1702877126426],[-86.7816852508174,36.1702028670126],[-86.7818657759153,36.1701457623543],[-86.7819776662593,36.1701240613936],[-86.7821072147584,36.1701441981398],[-86.7825718089479,36.1700363080286],[-86.782872293999,36.1699015133983],[-86.7830183960539,36.1698516223066],[-86.7834912031459,36.1705757108703],[-86.7845730437406,36.1701002278123],[-86.7844854331892,36.1699609600707],[-86.7844185158554,36.1698546568625],[-86.7845721595092,36.1697879765133],[-86.7845623450694,36.1697708359957],[-86.7846365204573,36.1697625362238],[-86.784835601558,36.1697072874561],[-86.7855330437321,36.1695136579736],[-86.7873622505956,36.1687536060466],[-86.7880736924579,36.1683224572318],[-86.7882181910564,36.1681117559125],[-86.7903101684016,36.1712304441442],[-86.7909628583377,36.17096047666],[-86.7905513142904,36.1703339034405],[-86.7928436717754,36.1693260178274],[-86.793211415307,36.1698829544934],[-86.7940700480958,36.1695137304442],[-86.7936411737252,36.1688802884691],[-86.794371084555,36.1685748350591],[-86.7940211462239,36.1680737200758],[-86.7953436186004,36.167526638451],[-86.7965692193092,36.1693574254452],[-86.796843949946,36.1692367489982],[-86.7977286111986,36.1706013178264],[-86.7977046432882,36.1707902569724],[-86.7981687525913,36.1714933701211],[-86.7988077953301,36.1724400399643],[-86.7992946413931,36.1730715897084],[-86.7995427649554,36.173490948839],[-86.7997908356539,36.1741465428754],[-86.7994328458547,36.1737084256692],[-86.7970586241293,36.1742974613296],[-86.7947274109991,36.1748791747727],[-86.7958222165789,36.175697003114],[-86.795309369925,36.1761548564199],[-86.7950748563622,36.1759885960829],[-86.7943227188151,36.1766647695244],[-86.7942116646236,36.1767703780399],[-86.79402313715,36.1768904801475],[-86.794784935318,36.1780391276303],[-86.7952915549895,36.1778190424793],[-86.7955937547822,36.1782954599779],[-86.7957645905601,36.1785500720739],[-86.795008930768,36.1788766781865],[-86.7952543902186,36.1792735962057]]]},"properties":{"OBJECTID":5,"DistrictName":"PHILLIPS-JACKSON STREET REDEVELOPMENT DISTRICT","GlobalID":"13ed3a32-7055-469f-84f1-8a5bbce9c725"}},{"type":"Feature","id":6,"geometry":{"type":"Polygon","coordinates":[[[-86.7740354911534,36.1617388842172],[-86.7729961669572,36.1601001613702],[-86.7724312173239,36.1600644336476],[-86.7723824577014,36.1600397066383],[-86.7721175741963,36.1600163643198],[-86.7717470772824,36.160018734111],[-86.7716351052175,36.1598441792402],[-86.7715743639396,36.159948299246],[-86.7708408757686,36.160271332018],[-86.7696175948323,36.1596674861561],[-86.769591234444,36.1596783838725],[-86.7687307862712,36.1591902531496],[-86.768770169197,36.1591578107267],[-86.767945189477,36.1586873314553],[-86.7677680034527,36.1586097662402],[-86.7676305155336,36.1585319491646],[-86.7673246968885,36.1583800868916],[-86.7668198852493,36.1581758340167],[-86.7666161695708,36.1580912823026],[-86.7653055716124,36.1575737925062],[-86.7652795907121,36.157624033623],[-86.7649871848453,36.1574899642849],[-86.7650088596333,36.1574504819484],[-86.763776880538,36.1568502083678],[-86.7633825209346,36.1566631259571],[-86.7635637011613,36.1562399032301],[-86.7634132289931,36.1561872016928],[-86.7634648813938,36.1560545279121],[-86.7636417810808,36.1561034859184],[-86.7638356410936,36.1556229509004],[-86.7643442172721,36.1557628074531],[-86.7646113931528,36.1551101156023],[-86.7643461139171,36.1550438349145],[-86.7642488447827,36.1550194118612],[-86.7635236806043,36.1548308481638],[-86.7633901657075,36.1547065018611],[-86.7632648167381,36.1545141407529],[-86.7637391406202,36.1543036781041],[-86.7636899398454,36.154232451121],[-86.7643224818266,36.1539637540765],[-86.7643883942505,36.1539382965846],[-86.7647998994015,36.1536173442344],[-86.7649402364884,36.1535341840324],[-86.7656430573057,36.1532364190914],[-86.7659637683034,36.1531056147518],[-86.7661302881915,36.1529936733916],[-86.767053579806,36.1526909221674],[-86.7669819787535,36.1525840692135],[-86.7672718112447,36.1524534575994],[-86.7674438440279,36.1524559416964],[-86.7678659829957,36.1523244871428],[-86.7685995505847,36.1520157767567],[-86.7687656498663,36.1518609122117],[-86.7690342837642,36.152274124318],[-86.7691283524812,36.1524237559336],[-86.7701853111601,36.1540802847527],[-86.772179384124,36.1532701921935],[-86.7738776753004,36.1559348775384],[-86.7739242914197,36.1560509083401],[-86.7769506651053,36.1606988027072],[-86.7766335050737,36.1608279628238],[-86.7765888035676,36.1607674444929],[-86.7764131090985,36.1608436885623],[-86.7763723119351,36.1607878009952],[-86.7762981513333,36.1608158127451],[-86.7762798395483,36.1607928733419],[-86.7762660845709,36.1607985614065],[-86.776078207392,36.1605086207409],[-86.7759340947887,36.1605749237045],[-86.7760953282065,36.1608242714872],[-86.7760206245817,36.1608533671801],[-86.7760609869186,36.1609210706047],[-86.775740295928,36.1610554766194],[-86.775771697382,36.1611089300749],[-86.7756267003093,36.1611670926607],[-86.7753017036416,36.1613122574821],[-86.7752612402864,36.1612338257467],[-86.7751338517132,36.16128829658],[-86.7752457985514,36.1614592694197],[-86.7750349200862,36.1615464697725],[-86.7749184600214,36.1613647961059],[-86.7740354911534,36.1617388842172]]]},"properties":{"OBJECTID":6,"DistrictName":"RUTLEDGE HILL REDEVELOPMENT DISTRICT","GlobalID":"841ecfcc-4052-4140-8991-8715bb377f71"}},{"type":"Feature","id":7,"geometry":{"type":"Polygon","coordinates":[[[-86.774327967109,36.1816695125983],[-86.7743511098521,36.181671681303],[-86.7744698278074,36.1820310588023],[-86.7745892464114,36.1823926298452],[-86.7745818869652,36.1824717927757],[-86.7746307433211,36.1824780720366],[-86.7745839289365,36.1829239476901],[-86.7746342827626,36.1830270924564],[-86.7746734115571,36.1830305068133],[-86.7747184359533,36.1835043604599],[-86.7747255310112,36.1835790351481],[-86.7748143429805,36.1841387730444],[-86.7748143583301,36.1841388648748],[-86.7748700167267,36.1844945259025],[-86.77486034027,36.1845911999164],[-86.7748446992715,36.1847474181679],[-86.7748445980369,36.1847474116075],[-86.7747947064189,36.1847458094224],[-86.7747880882159,36.1847455950372],[-86.7747877523785,36.1847455863773],[-86.7747721004471,36.1848778202444],[-86.774768149949,36.1849126163625],[-86.7747677397228,36.184916261003],[-86.7747677312517,36.184916304318],[-86.774852516132,36.1849231793704],[-86.7749244395386,36.1862500963894],[-86.7749946666682,36.187541860997],[-86.7750705416526,36.1889258899121],[-86.7750743638279,36.1889961900257],[-86.7751300314133,36.1900199349384],[-86.7751397399292,36.1902055201113],[-86.7751500327296,36.1904021960663],[-86.7751563781686,36.1904966545169],[-86.775173153857,36.1908261926152],[-86.7750033497866,36.1909283746469],[-86.7748847524459,36.1910301836304],[-86.774906978945,36.1910542587995],[-86.7749179294942,36.1910651767068],[-86.7749318707463,36.1911046445363],[-86.7749624434716,36.1911813656437],[-86.7749631948326,36.1912582790639],[-86.7750342111523,36.1915896671175],[-86.7750404580243,36.1917434616821],[-86.7750520385913,36.1920268829973],[-86.7750484509341,36.1927697091715],[-86.7750487103913,36.1930577841961],[-86.7750420956363,36.1934968214328],[-86.7750345820283,36.1944026485546],[-86.7750183159565,36.1944027529674],[-86.775010417942,36.1944269746004],[-86.7749697516378,36.194427235627],[-86.7749588923411,36.1944910371429],[-86.7749364183092,36.1946230377657],[-86.7749996534984,36.1947127373172],[-86.7749643271032,36.1950430195562],[-86.7748699323548,36.195033533064],[-86.7748316462302,36.1950296852371],[-86.7746633370719,36.1950121938301],[-86.7746317259175,36.1950089321937],[-86.7744952310871,36.1949948910517],[-86.7743296284881,36.1949778576849],[-86.7741588136475,36.1949602861115],[-86.7739903262235,36.1949429544342],[-86.77382105864,36.1949255419024],[-86.7736551468971,36.1949084744441],[-86.7734865973688,36.1948911361541],[-86.7733151251033,36.1948734954999],[-86.773147644211,36.1948562652546],[-86.7729805373723,36.1948390738406],[-86.7729142252554,36.1948923366081],[-86.7728067941965,36.195326749079],[-86.7727976410502,36.1953265327795],[-86.7727881472258,36.1953260437751],[-86.7727789914106,36.1953255535078],[-86.7727698366986,36.1953250623315],[-86.7727603390939,36.1953242993657],[-86.7727511790269,36.1953232584529],[-86.7727420205083,36.1953224906117],[-86.7727328566874,36.1953211784419],[-86.7727236939523,36.1953198635606],[-86.7727145301058,36.1953185486858],[-86.7726901146559,36.1953170565311],[-86.7723143778606,36.1952916494004],[-86.7720678033705,36.195349087436],[-86.7720662203947,36.1953562103117],[-86.7720616606276,36.195375193893],[-86.7720570997465,36.1953941774812],[-86.772052539975,36.195413161062],[-86.7720476410976,36.1954321477121],[-86.7720427395338,36.1954508585932],[-86.7720378406429,36.1954698443415],[-86.7720329390832,36.1954885561232],[-86.7720277010747,36.1955075440392],[-86.7720225149677,36.1955317508264],[-86.7720192249786,36.195541936286],[-86.7720135569585,36.1955515871814],[-86.772006523356,36.1955604230552],[-86.7719977890451,36.1955681702642],[-86.7719876864766,36.1955748275834],[-86.7719762125329,36.1955798461647],[-86.7719640496615,36.1955837696109],[-86.771951530081,36.1955857729465],[-86.7719383177873,36.1955864062864],[-86.7719254270125,36.1955851151792],[-86.7714042481417,36.195522517037],[-86.7714194470491,36.1954125381746],[-86.7714474096646,36.1952211650712],[-86.7715006035683,36.1948362380882],[-86.7715469950641,36.1945128881272],[-86.7715564648503,36.1944468985402],[-86.7718042323148,36.1944693561248],[-86.7718260177554,36.1943314203002],[-86.7717993296546,36.1943288735989],[-86.7718979203764,36.1935942289026],[-86.771935870494,36.1933148862655],[-86.7719535008386,36.1931763217188],[-86.7719738203444,36.1930355435948],[-86.771991493333,36.1929013742123],[-86.7720117913098,36.1927583980303],[-86.7720294641901,36.1926242304343],[-86.7720470942002,36.1924856640451],[-86.7720647658394,36.1923514955397],[-86.7720824385219,36.1922173261185],[-86.7721373330858,36.1918161937498],[-86.7721421370228,36.1916488013571],[-86.7721596571954,36.1915157846851],[-86.7721773081446,36.1913794180786],[-86.7722125231818,36.1910978944845],[-86.7722302381197,36.1909681201778],[-86.7722478674286,36.1908295554983],[-86.7722628706304,36.1906997994229],[-86.7722805426098,36.1905656299114],[-86.7723359905733,36.1901345375524],[-86.7723630012731,36.1901372442926],[-86.7723857780905,36.1900021173901],[-86.7723672169843,36.1900002812956],[-86.7723900325765,36.1898375097113],[-86.7724076827563,36.189701143008],[-86.77240768008,36.18970086814],[-86.7724080046839,36.189699492539],[-86.7724117906933,36.1896706243076],[-86.77243079336,36.1895339740561],[-86.7724684647638,36.1892612254341],[-86.7725017864133,36.1890126782819],[-86.7725038501255,36.188997281422],[-86.7725242103753,36.188860897327],[-86.7725418815032,36.1887267277093],[-86.7725465207618,36.1886890135177],[-86.7725677654657,36.1885845554885],[-86.7725594669768,36.1885837686145],[-86.7725823234757,36.1884253939256],[-86.772620317955,36.1881509928863],[-86.7726380465093,36.1880228667289],[-86.7726633145625,36.187833707442],[-86.7726759485482,36.1877391282435],[-86.7727113967505,36.1874817763895],[-86.772715460861,36.1874820532017],[-86.7727451492125,36.1873156224722],[-86.7727648147947,36.1871210211058],[-86.7727897825728,36.1869010963355],[-86.7728346169745,36.1864942449061],[-86.7728495755803,36.186360093415],[-86.7728594773327,36.1862633334652],[-86.772864449604,36.1862171506325],[-86.7729211248726,36.1856799861818],[-86.772996906699,36.1849900810693],[-86.7730110909054,36.1848514741028],[-86.7730554864109,36.18444385638],[-86.7730760408628,36.1843003507785],[-86.7731135242381,36.1840267005719],[-86.7731242362319,36.1839436706108],[-86.7731664658751,36.1836175994757],[-86.7731806192973,36.1835142194443],[-86.7732159449856,36.1832561793402],[-86.773231536273,36.1832070353783],[-86.7732227750358,36.1832062785543],[-86.7732491892153,36.183068399785],[-86.7726970681497,36.1830184494725],[-86.7726972783885,36.1830168637042],[-86.7727027420922,36.1829756049028],[-86.77282142954,36.1820792577842],[-86.7728384261136,36.1820774825362],[-86.7729101285027,36.1820699981232],[-86.7736792151067,36.1819897033146],[-86.7741601888398,36.1817782528478],[-86.7741754229748,36.1816552271481],[-86.774316325638,36.1816684219344],[-86.774327967109,36.1816695125983]]]},"properties":{"OBJECTID":7,"DistrictName":"SKYLINE REDEVELOPMENT PLAN","GlobalID":"8f78af84-5985-46ef-be56-3d3eeff1fdd0"}},{"type":"Feature","id":8,"geometry":{"type":"Polygon","coordinates":[[[-86.7989504818588,36.1707626459474],[-86.7993579849035,36.1705863327973],[-86.7994335633141,36.1705550647149],[-86.7994605331274,36.1705416996127],[-86.7996531084696,36.1708239227146],[-86.7997026018975,36.1708939199496],[-86.799851025884,36.1708292041276],[-86.8000021583452,36.1707644701688],[-86.8001506040098,36.1707019520252],[-86.8002963373846,36.1706394507787],[-86.8004474702417,36.1705747171529],[-86.8005958919121,36.1705100004167],[-86.8006378863254,36.1704923147479],[-86.800744336633,36.1704474815387],[-86.8009386328282,36.1703626807699],[-86.8010898078581,36.1703003560428],[-86.8010595074491,36.1702541931341],[-86.8010430023442,36.1702301288216],[-86.80099346267,36.170155736934],[-86.8009301511471,36.1700594598543],[-86.8008916083725,36.1700003787209],[-86.8008503115057,36.1699369212575],[-86.8008694641579,36.1699283790234],[-86.8011278972336,36.1698131085275],[-86.8011612892486,36.1697983277789],[-86.801225394464,36.1697737274999],[-86.8014740951194,36.1701445800836],[-86.8015044184707,36.1701614109199],[-86.8015407173648,36.1701661142392],[-86.8028882965924,36.1695783488453],[-86.8030409680215,36.1695205189378],[-86.8030801324334,36.1695836654002],[-86.80316546148,36.1697127597166],[-86.8032479931463,36.1698330825021],[-86.8041797432197,36.1694378919044],[-86.8043305036174,36.1693776306464],[-86.8044445447831,36.1695556249146],[-86.8044569331902,36.1695744969556],[-86.8046413711658,36.1698545683124],[-86.805681274939,36.1695990214447],[-86.8058174715778,36.1695654213764],[-86.8064960873357,36.1693982618984],[-86.8063228272799,36.1689498541844],[-86.8065344707514,36.1689079271242],[-86.8094055901277,36.1684557678128],[-86.8117794663151,36.1681497340177],[-86.8121318123128,36.1681495610156],[-86.8139100603066,36.1679090257663],[-86.8169498112295,36.1675214797832],[-86.8186254973616,36.1673255222024],[-86.8204365244922,36.1671132375716],[-86.8206448875996,36.1670810534156],[-86.8212033490585,36.1669963009452],[-86.8212242693314,36.1670838703799],[-86.8213020376707,36.1673952812989],[-86.8213893015428,36.1677604064073],[-86.8214294740412,36.1679284103459],[-86.8207416521716,36.1682495529846],[-86.8187738172721,36.1685024643912],[-86.8172931721417,36.1686905095658],[-86.8169521163577,36.1687345743905],[-86.8158396231639,36.1688783542732],[-86.8158042088757,36.1688610125511],[-86.8152709757035,36.1689305452794],[-86.8150314755243,36.1689600093363],[-86.8147675072142,36.1689954792258],[-86.8135331819417,36.1691532466356],[-86.8113070051713,36.1691264750685],[-86.811266441825,36.169135538711],[-86.8111285582585,36.1691694302749],[-86.8111150521056,36.1691739165355],[-86.8110014923202,36.1692010516973],[-86.8108284421622,36.1692417719962],[-86.8106689204796,36.1692802038855],[-86.81058781591,36.1693005269728],[-86.8105040004199,36.1693208691105],[-86.8104228957756,36.169341192988],[-86.8103417686432,36.169359318763],[-86.8103282624135,36.1693638049352],[-86.8102498450151,36.1693819124558],[-86.8102417370019,36.1693841641816],[-86.8101415931296,36.1693980228823],[-86.809979226428,36.1694232864627],[-86.8098411837173,36.1694417947313],[-86.8097078900346,36.1694625340727],[-86.8095543250997,36.1694854740416],[-86.8095191372085,36.1694901055436],[-86.8093757184174,36.1695130439289],[-86.8093621896873,36.1695153319448],[-86.8091835839825,36.1695429015402],[-86.8090212155773,36.1695681647395],[-86.8089786105667,36.1695744662823],[-86.8087722325469,36.1696049955148],[-86.8086044443083,36.1696302944678],[-86.8083527723806,36.1696693405863],[-86.8082039109613,36.169690115826],[-86.8080848392398,36.1697084950478],[-86.8080469637472,36.1697153414094],[-86.8079711881476,36.1697268369647],[-86.8078277472157,36.1697475754535],[-86.8077113851133,36.1697659361704],[-86.8076707762842,36.1697706025067],[-86.8075517043185,36.1697889812022],[-86.8073866261982,36.1698142594225],[-86.8073570141348,36.1698342367736],[-86.8068857001491,36.1698637605118],[-86.8067100036567,36.1699110853561],[-86.8066723725781,36.1699421044171],[-86.806537106101,36.1699671822277],[-86.8063639626628,36.169999106628],[-86.806182576938,36.1700200975474],[-86.8060066107126,36.1700410511024],[-86.8058333553179,36.170061987203],[-86.8056765404834,36.1701003943868],[-86.8056251791685,36.1701139227916],[-86.8054981095249,36.1701455384123],[-86.8049871424078,36.1702742138735],[-86.8049087228911,36.1702923179196],[-86.8048303256328,36.1703126199631],[-86.8048051984816,36.1702402641287],[-86.8046863925653,36.1702850102679],[-86.8045648766935,36.1703297734514],[-86.8044730616905,36.1703633502773],[-86.8044255298652,36.1703870171648],[-86.8043786704485,36.1704101297776],[-86.8042653738692,36.1704636288651],[-86.8041574522331,36.1705126965423],[-86.8040468440178,36.1705639793135],[-86.8039335247257,36.170615280039],[-86.8038525951675,36.1706531793753],[-86.8037743085801,36.1706844682691],[-86.8037168995404,36.170706657673],[-86.8035313178429,36.17077838787],[-86.8034475000945,36.1707987250921],[-86.8034366808032,36.1708009944052],[-86.8033370678882,36.1708675870969],[-86.803237454806,36.1709341797052],[-86.8031216692893,36.1710096708203],[-86.8029792465953,36.1711314894342],[-86.8029441910159,36.1711493046033],[-86.8026826268696,36.1712829036374],[-86.8025290069009,36.1713696340426],[-86.8024050438533,36.1714407833327],[-86.8022595095112,36.1715230641451],[-86.8021867533285,36.1715653026076],[-86.8021112872208,36.1716075599351],[-86.8021032009682,36.1716120091609],[-86.8019518009814,36.171650375474],[-86.8018220175456,36.1716820043148],[-86.8017597597072,36.1716976006547],[-86.8017598350974,36.171697801137],[-86.8016246528799,36.1717316638205],[-86.8014651217349,36.17177008352],[-86.8014326422211,36.1717746946684],[-86.8011433491165,36.1718469402714],[-86.8009055285726,36.1719166463563],[-86.800671998686,36.1718742416825],[-86.8005796703082,36.1718572730406],[-86.8004846321051,36.1718403222994],[-86.800386860795,36.1718211914116],[-86.8002918226763,36.1718042405185],[-86.8001017465606,36.1717703385075],[-86.7998790791365,36.1717300584947],[-86.7997758883869,36.171710963027],[-86.7997132636732,36.1716828086321],[-86.7995036400652,36.1715918956328],[-86.7994366883726,36.1714033402488],[-86.7992503510579,36.1712023898429],[-86.7989504818588,36.1707626459474]]]},"properties":{"OBJECTID":8,"DistrictName":"JEFFERSON STREET REDEVELOPMENT DISTRICT","GlobalID":"7e5d3c7e-458a-4541-a422-da42802cc447"}},{"type":"Feature","id":9,"geometry":{"type":"Polygon","coordinates":[[[-86.78092383347,36.1567952844307],[-86.7809219367675,36.1567936320562],[-86.7803055641288,36.1558438333133],[-86.7802154523828,36.1557054128419],[-86.7800228316699,36.1554077756677],[-86.7799567875519,36.155305462087],[-86.7797855369122,36.1550428008383],[-86.7797603577684,36.1550035058654],[-86.779727719376,36.1549525686892],[-86.77968017733,36.1548790644186],[-86.7796541770242,36.1548388662462],[-86.779635582537,36.1548147115268],[-86.7795951084346,36.1547516911153],[-86.7795635201854,36.1546857896036],[-86.7795379811469,36.1546032674102],[-86.7795303049406,36.1545588960177],[-86.7795256422138,36.1545066676994],[-86.7795036154302,36.1541067823109],[-86.7795030024482,36.1541061517751],[-86.7794673193436,36.1534698238433],[-86.7793853332928,36.1517213175784],[-86.7793277534561,36.1506486100854],[-86.7805931234657,36.1507548929317],[-86.7806157992573,36.1506689000196],[-86.7810932689331,36.1507850406031],[-86.7810587375015,36.1508615712731],[-86.7810421762603,36.1509713723656],[-86.7809933838004,36.1513913801807],[-86.7824589307068,36.1515201954872],[-86.7825183012113,36.1509808845683],[-86.7840958020167,36.151132800714],[-86.7844489463435,36.1511638895903],[-86.7845434040791,36.1505953365566],[-86.786291617478,36.1507651894206],[-86.7883695557917,36.1509757873227],[-86.7908714535651,36.1512407998009],[-86.7908769529065,36.1512026110554],[-86.7910359090503,36.1512206455078],[-86.7910643614048,36.1511250736254],[-86.7916412395929,36.1511832918026],[-86.7916191463783,36.1513265147908],[-86.7928435222861,36.1514472459741],[-86.7927600343303,36.1519199499715],[-86.7930032716392,36.1521329683817],[-86.793056480168,36.1521612341359],[-86.7931992276311,36.1523224494033],[-86.7936822575785,36.1529917367944],[-86.7925838913142,36.1537143430464],[-86.7922548987972,36.1531585018949],[-86.7921028176019,36.1532405778616],[-86.7891104584415,36.1545192629849],[-86.7880384969773,36.1549459606068],[-86.7853858077937,36.1560935633115],[-86.7854696471095,36.1562456345048],[-86.7855594621135,36.1564072030934],[-86.7856967908943,36.1566161557716],[-86.7860012852736,36.1570767884706],[-86.7833633157952,36.1582033977365],[-86.7821581751312,36.156267110137],[-86.78092383347,36.1567952844307]]]},"properties":{"OBJECTID":9,"DistrictName":"ARTS CENTER REDEVELOPMENT DISTRICT","GlobalID":"77f96759-065e-43d8-b271-7a27c50bcf76"}},{"type":"Feature","id":10,"geometry":{"type":"Polygon","coordinates":[[[-86.7768397669796,36.1636766672198],[-86.7767381872191,36.1635125419337],[-86.7764559605823,36.1636292472604],[-86.7763824075927,36.1635174114644],[-86.7762630936245,36.163327181032],[-86.7763406428071,36.1632958326718],[-86.7764364990872,36.1632537170883],[-86.7765086856399,36.1632227419953],[-86.776310744422,36.1628956666903],[-86.7757123731395,36.1619715823083],[-86.7753327785127,36.1621350090032],[-86.7752679337254,36.1620308350312],[-86.7745328697593,36.162345919416],[-86.774134965232,36.1617258979008],[-86.7744344264874,36.1615965083094],[-86.7744832168015,36.1615758139072],[-86.7749312653533,36.1613827140429],[-86.7750469329723,36.1615630174481],[-86.7752579271908,36.1614729863444],[-86.7751353679734,36.1612871854899],[-86.7752601558876,36.161234659177],[-86.7753087345089,36.1613100880222],[-86.7753813435805,36.1612800635068],[-86.7755355450641,36.1612070260981],[-86.7757760800553,36.1611094147257],[-86.7757413853031,36.1610560626528],[-86.7760612523354,36.1609172979847],[-86.7760219286726,36.1608565889462],[-86.7760945189923,36.1608247165108],[-86.775932617271,36.1605763572106],[-86.7760052073614,36.1605444839252],[-86.7760777623801,36.1605089165154],[-86.7762651474043,36.1607985376925],[-86.776278406198,36.1607923454046],[-86.7762983602346,36.1608189892793],[-86.7763739215741,36.1607870353762],[-86.7764121328804,36.1608445582592],[-86.7764706573586,36.1608194463846],[-86.7765900011114,36.1607661362543],[-86.7766305565145,36.1608271742602],[-86.7769497925854,36.1606993653092],[-86.7739288435192,36.1560577423252],[-86.7778869626861,36.1543626178743],[-86.7780191330091,36.1545693926683],[-86.7779387490696,36.1540160325894],[-86.7779382009641,36.1539853973905],[-86.7779577598732,36.1539611902226],[-86.7779807196879,36.1539476646294],[-86.7780037625995,36.1539421634195],[-86.7795033175478,36.1541117565517],[-86.7795030024482,36.1541061517751],[-86.7795036154302,36.1541067823109],[-86.7795256422138,36.1545066676994],[-86.7795303049406,36.1545588960177],[-86.7795379811469,36.1546032674102],[-86.7795635201854,36.1546857896036],[-86.7795951084346,36.1547516911153],[-86.779635582537,36.1548147115268],[-86.7796541770242,36.1548388662462],[-86.77968017733,36.1548790644186],[-86.779727719376,36.1549525686892],[-86.7797603577684,36.1550035058654],[-86.7797855369122,36.1550428008383],[-86.7799567875519,36.155305462087],[-86.7800228316699,36.1554077756677],[-86.7802154523828,36.1557054128419],[-86.7803055641288,36.1558438333133],[-86.7809219367675,36.1567936320562],[-86.78092383347,36.1567952844307],[-86.7797625437947,36.1572921838027],[-86.7797590238261,36.1572912557055],[-86.7798045467113,36.1574134911618],[-86.7800971595526,36.157873946653],[-86.7789695887687,36.1583468446291],[-86.7792560627444,36.1587975367369],[-86.7792881491907,36.1587826262193],[-86.7798874371509,36.1596985457705],[-86.7802084303625,36.1595608703625],[-86.7806829195215,36.1602815446716],[-86.7811904748361,36.1600626079639],[-86.7812825289237,36.1602041478321],[-86.780772958083,36.1604230988551],[-86.7809447514922,36.1606833827675],[-86.7816328148817,36.1603815894032],[-86.7817895623886,36.1606261991488],[-86.781793339425,36.1606299636224],[-86.7817968016847,36.1606334777793],[-86.7818021296578,36.1606367283956],[-86.7818065188481,36.1606392271246],[-86.7818102737761,36.1606409728952],[-86.7818152781231,36.1606429620262],[-86.7818227862978,36.1606459443598],[-86.7818321452526,36.1606471473118],[-86.7818396224586,36.1606470988725],[-86.7818442918339,36.1606465621088],[-86.7818498909056,36.1606455164132],[-86.7818548640024,36.1606442206143],[-86.7820174776097,36.1605718783359],[-86.7821243257186,36.1605265460109],[-86.7821869632964,36.1604965351289],[-86.7823074422935,36.1604435940933],[-86.7823514223706,36.1604255449565],[-86.7824435061282,36.1603846278441],[-86.7825493932958,36.160333190753],[-86.7825895146223,36.1603117831793],[-86.7826081980545,36.1603023582085],[-86.7826590438545,36.1602752427172],[-86.7827026008352,36.160249584063],[-86.7827326760655,36.1602319079627],[-86.7827665520694,36.1602119504214],[-86.7827903993056,36.1601971356781],[-86.7828324318002,36.1602109598127],[-86.7837012126402,36.1615119508241],[-86.7838377265743,36.1616922457484],[-86.7846517267018,36.1629827115617],[-86.7844124325914,36.1630868316014],[-86.7841857899555,36.1631908707595],[-86.7839338480618,36.1632950720149],[-86.7836566112725,36.1633994369827],[-86.7834803516617,36.1634826338389],[-86.783215862534,36.1635971705761],[-86.7828856997602,36.1637457888653],[-86.7822551913619,36.1640210340338],[-86.78168837025,36.1642612456281],[-86.7810650813007,36.1645479757807],[-86.7804486194436,36.1648058115898],[-86.7798393822863,36.1650751382777],[-86.7792583723503,36.1653212008],[-86.778592324237,36.165602422331],[-86.7791127276639,36.1664298411786],[-86.7775042075341,36.1671036800015],[-86.7771425975938,36.1665060046481],[-86.7768030168897,36.1659774173305],[-86.7764923469675,36.1654947960926],[-86.7761240869661,36.1649433160964],[-86.7768113135325,36.1646446602717],[-86.7773142933531,36.1644221890759],[-86.7770397034899,36.1639963023105],[-86.7768397669796,36.1636766672198]]]},"properties":{"OBJECTID":10,"DistrictName":"CAPITOL MALL REDEVELOPMENT DISTRICT","GlobalID":"f755565e-d400-4ace-959f-a86ca1cb21df"}},{"type":"Feature","id":11,"geometry":{"type":"Polygon","coordinates":[[[-86.765496508239,36.1703208865391],[-86.7654406216375,36.1702251785296],[-86.7652507578372,36.169920727658],[-86.7652015934904,36.1698301024166],[-86.7651667539822,36.1697709613322],[-86.7651364155939,36.1696941079437],[-86.7651185746547,36.1696209660547],[-86.7650912444895,36.1695327268031],[-86.7650592627303,36.1694470423784],[-86.7650131789419,36.1693526067963],[-86.7649250809901,36.1692142339172],[-86.7649246632456,36.1692057213929],[-86.7649225502222,36.1691977675826],[-86.7649190856511,36.1691898232389],[-86.7644702896212,36.1683927207675],[-86.764422506012,36.1682858879607],[-86.7643979761898,36.1682433710106],[-86.7641799457952,36.1678654758005],[-86.7641737546176,36.1678558984759],[-86.7640972173072,36.1677182052214],[-86.7637916120135,36.167185098493],[-86.7637808937294,36.1671663983249],[-86.7637764361783,36.1671609324059],[-86.7637713096834,36.1671562944783],[-86.7637651699789,36.16715193875],[-86.7637583602103,36.1671484101187],[-86.763751219387,36.1671457082417],[-86.7637437475086,36.167143833119],[-86.7637359456692,36.167142782941],[-86.7637278127829,36.1671425604182],[-86.7637200283415,36.167143433434],[-86.7637122503021,36.1671448561819],[-86.7631090472085,36.1673765227058],[-86.7630533633983,36.167397907634],[-86.7630081373826,36.1674157754728],[-86.7624326224467,36.1676381598331],[-86.7623836903225,36.1676570674756],[-86.7622092348217,36.1677653056453],[-86.7606698728994,36.1683557952968],[-86.7604515278201,36.1684395487706],[-86.7603051622369,36.1681838801313],[-86.7600573500145,36.1677443175389],[-86.7600570107851,36.1677437149249],[-86.7600374827652,36.1677088209637],[-86.7598756811144,36.1677712286387],[-86.7597299459041,36.1678274396956],[-86.7596681874707,36.1678512595601],[-86.7595788227833,36.1678857267533],[-86.7594223494058,36.1679460778376],[-86.75926992902,36.1680048647578],[-86.7591168826994,36.1680638924531],[-86.7589606973839,36.1681241023249],[-86.7589582244423,36.1681250542913],[-86.7587982938493,36.1681867448496],[-86.7587982262913,36.1681867705098],[-86.7586449786367,36.1682459719085],[-86.7586446220374,36.1682461093399],[-86.7584967539968,36.16830310378],[-86.7583411258089,36.1683630885287],[-86.7581881862985,36.1684220377534],[-86.758036596568,36.1684804681877],[-86.7578827850207,36.1685397514598],[-86.7578826631981,36.1685397981894],[-86.7577292227717,36.1685983930691],[-86.7577291917537,36.168598404079],[-86.757626237479,36.1686380589953],[-86.7574290602793,36.1687096214578],[-86.757186025432,36.1688035874672],[-86.7558979168928,36.1693015979349],[-86.7557394689662,36.1690275236041],[-86.7557117631128,36.1689796009894],[-86.7555669562726,36.1687291199835],[-86.7554221640573,36.1687890268008],[-86.755161104207,36.1688888425943],[-86.7550192175992,36.1689430915184],[-86.754852178053,36.1690069572753],[-86.7547774496317,36.1690355287949],[-86.7545395175482,36.1691264995754],[-86.7542886202925,36.1692224267564],[-86.7540835649811,36.16930082489],[-86.7540808858856,36.1693018492436],[-86.754044055232,36.1693159309026],[-86.7537205850573,36.1694396032974],[-86.7536862615628,36.1694502524893],[-86.7531447907097,36.1685122705084],[-86.7531289583969,36.1684865462128],[-86.7531124558873,36.1684608269981],[-86.7530952798761,36.1684359357409],[-86.7530770868826,36.1684110508264],[-86.7530582222339,36.1683867198722],[-86.7530383469329,36.1683629449931],[-86.7530177962489,36.1683394483092],[-86.7529965701908,36.1683162307214],[-86.7529743360813,36.1682938431762],[-86.7529517655955,36.1682717326116],[-86.7529281844589,36.1682501781197],[-86.7529039279408,36.1682289018212],[-86.7528790023772,36.1682084543499],[-86.7528663708544,36.1681983695587],[-86.7528537344954,36.1681880090087],[-86.7528407699245,36.1681782011784],[-86.7528298635499,36.1681714015545],[-86.7528148326102,36.1681583088758],[-86.7528015268209,36.1681485022683],[-86.7527882236426,36.1681389705293],[-86.7527749167484,36.1681291639258],[-86.7527616135764,36.1681196321837],[-86.7527479740016,36.1681103756221],[-86.7527217186037,36.1680926852748],[-86.7526954695264,36.1680755428523],[-86.7526685472896,36.168058678607],[-86.7526607265468,36.1680559803164],[-86.7526409478404,36.1680423683512],[-86.7526133532324,36.1680263329452],[-86.7525854248448,36.1680108484854],[-86.752497237257,36.1679644234159],[-86.7524356221103,36.1679334912356],[-86.7523642296865,36.1679075643189],[-86.752282692348,36.1678836238945],[-86.7522226092788,36.167871361707],[-86.7521713553583,36.167861239953],[-86.7520950481369,36.167852927216],[-86.7513029240145,36.1677787446589],[-86.7513848009706,36.1671694852786],[-86.7514371159444,36.1667801755803],[-86.752085475341,36.1668428904577],[-86.7529074579233,36.1669226505981],[-86.7529125437328,36.1668874559473],[-86.7528303433596,36.1665077746728],[-86.7528569676064,36.166493046833],[-86.7528798287415,36.1664745012615],[-86.7528975777924,36.1664524140513],[-86.7529098825364,36.166428437497],[-86.7529164128886,36.1664025745607],[-86.7529163008234,36.1663907632552],[-86.7529181981174,36.1663764663384],[-86.7529101619449,36.1663506942697],[-86.7528980731579,36.1663263201103],[-86.7528805873562,36.1663044526922],[-86.7528580487383,36.1662856387376],[-86.7529110840715,36.165876544559],[-86.7529640529636,36.1654608570526],[-86.7531864923515,36.1654814456283],[-86.7551473598804,36.1647681411896],[-86.7552694670114,36.1647233754477],[-86.7551917375056,36.1645898532706],[-86.7551773724349,36.1645651772235],[-86.7550808375421,36.1643993513378],[-86.7550374440185,36.1643249023205],[-86.7549630595446,36.164197904066],[-86.7548941781396,36.1640796614062],[-86.7548197952362,36.1639526630481],[-86.7547316104248,36.1637993780559],[-86.7550994485064,36.1636648883108],[-86.7559118624978,36.1633678442178],[-86.7560658110194,36.163311938613],[-86.7568625248023,36.163019052021],[-86.7568919154729,36.1630103516228],[-86.7569230328518,36.1630052121134],[-86.7569545296056,36.1630041899128],[-86.7569857233619,36.1630072911033],[-86.7570159435484,36.163014244103],[-86.7570445007069,36.1630247783509],[-86.7570707239592,36.1630391729431],[-86.7570939237751,36.1630563344621],[-86.7571134270336,36.1630765402165],[-86.7571288831493,36.163098691959],[-86.7571316376766,36.1631033865082],[-86.7574760097854,36.1636898834305],[-86.7575889251781,36.1638781732865],[-86.7576770946097,36.1640292581273],[-86.7577487316972,36.1641518774082],[-86.7578844053829,36.1643817789211],[-86.7578974887286,36.1644036732772],[-86.7579691253833,36.1645262924221],[-86.7580407213862,36.1646445162943],[-86.7581316419213,36.164799978085],[-86.7582434639919,36.1649889095538],[-86.758395740053,36.164925783351],[-86.7588465600163,36.1647383466309],[-86.7588608212758,36.164732981843],[-86.7590266925413,36.1646642175427],[-86.7593027760774,36.1645486769651],[-86.7597293059339,36.164372377973],[-86.7597347052398,36.164370145793],[-86.7601477249917,36.1641983258289],[-86.7601828292334,36.1641849209798],[-86.7603320544831,36.1641227136861],[-86.7600721914655,36.1636691659577],[-86.7604972828655,36.1633434330461],[-86.7604283097244,36.1632164030781],[-86.7605198191894,36.1631498968969],[-86.7608023922128,36.1629415362413],[-86.7613024787455,36.1633713214269],[-86.7619971578275,36.1640262341123],[-86.7622241181378,36.1642357761216],[-86.7623519542326,36.1643536422892],[-86.7625194500252,36.1645091678007],[-86.7626199432734,36.1648134570731],[-86.7622637578333,36.1649766853515],[-86.7623927628154,36.1651695800406],[-86.7624452420987,36.1652480490863],[-86.7625259623164,36.1653687452441],[-86.7625270282852,36.1653684032377],[-86.7625490082292,36.1653641437723],[-86.762571692536,36.1653626269171],[-86.7625940642547,36.1653638590971],[-86.7626161233876,36.1653678403127],[-86.7626371904379,36.1653742999708],[-86.7626569226959,36.1653829680547],[-86.762674984862,36.1653941143603],[-86.7626906975157,36.1654074764064],[-86.7627037137124,36.1654222281214],[-86.7629539681176,36.1657283203403],[-86.7636375990348,36.166921167956],[-86.7636413778829,36.1669269121598],[-86.7636421986519,36.1669290402672],[-86.763703969144,36.1670347529576],[-86.7638571339557,36.1669770426077],[-86.7639328336936,36.1671091336492],[-86.7639601716203,36.1671568359464],[-86.7640995738533,36.1674000798403],[-86.7642940298675,36.1673285263325],[-86.7649065280822,36.1675356185319],[-86.7650518787784,36.1677824827718],[-86.7652099600258,36.1678737794563],[-86.7655027506101,36.1684433155647],[-86.7655837609465,36.168412035183],[-86.7659365471168,36.1690190960237],[-86.7659885235418,36.1689984380961],[-86.7662586076798,36.1694609809303],[-86.7661073865105,36.1695190775894],[-86.7662783658542,36.1698229143225],[-86.7663411439621,36.1699384439327],[-86.7660394146284,36.1700590327005],[-86.7660724981625,36.1701165110256],[-86.7659914237788,36.1701412020535],[-86.7660017516314,36.1701581659499],[-86.7656830713222,36.170281807627],[-86.7656418685988,36.1702977690644],[-86.7655965373763,36.1703153284838],[-86.765596607535,36.1703149963725],[-86.765511897506,36.1703472411214],[-86.765496508239,36.1703208865391]]]},"properties":{"OBJECTID":11,"DistrictName":"CAYCE REDEVELOPMENT DISTRICT","GlobalID":"99c94837-5c30-4ce3-9eb5-e735a6158573"}},{"type":"Feature","id":12,"geometry":{"type":"Polygon","coordinates":[[[-86.8535539307488,36.1709329143249],[-86.8513767029662,36.1752918444981],[-86.8501528060075,36.1798708313273],[-86.849622839635,36.1830041885091],[-86.8496269776983,36.1830053436546],[-86.8496592699779,36.1830147311283],[-86.8496915622652,36.1830241185932],[-86.8497238545601,36.1830335060495],[-86.8497564888641,36.1830431659772],[-86.8497887811744,36.1830525534161],[-86.8498207414351,36.1830624929587],[-86.8498530367245,36.1830721570494],[-86.8498853319736,36.1830818166255],[-86.849917630204,36.1830917537632],[-86.8499495893848,36.1831016932794],[-86.8499818876218,36.1831116294986],[-86.8499897233747,36.1831141339348],[-86.8500138497636,36.1831218438644],[-86.8500458130157,36.1831320573127],[-86.8500777751739,36.1831422716615],[-86.8501097373308,36.1831524851006],[-86.8501417024412,36.1831629733979],[-86.8501736686718,36.1831734616789],[-86.8502052947507,36.1831839532483],[-86.8502372598865,36.1831944415202],[-86.85026889003,36.1832052070306],[-86.8503008581286,36.1832159701522],[-86.8503324871777,36.1832267356536],[-86.8503641202931,36.1832377760056],[-86.8503957493595,36.1832485414904],[-86.8504273824924,36.1832595818257],[-86.8504590174593,36.1832708961259],[-86.8504903115515,36.1832819388333],[-86.8505219443226,36.1832932540338],[-86.8505532435928,36.1833045706745],[-86.8505848786052,36.1833158858429],[-86.8506161786171,36.1833274773495],[-86.8506474757006,36.1833387948826],[-86.850678774619,36.1833503863808],[-86.8507100776151,36.1833622536308],[-86.8507410386046,36.1833738474944],[-86.8507723416097,36.1833857138269],[-86.8532818848953,36.184323984684],[-86.8533145556204,36.1843369402421],[-86.8533062707317,36.184354304992],[-86.8524531657141,36.1861670842469],[-86.8478805471645,36.1857377769003],[-86.8478796077486,36.185649877288],[-86.8477943051162,36.1855318026141],[-86.8476595059751,36.1853481457639],[-86.8476430059607,36.1853262850629],[-86.8477250442702,36.1851389073978],[-86.8477356283249,36.1851146592251],[-86.847734097838,36.1851112658774],[-86.8476773176761,36.1849854066343],[-86.8476107097525,36.1848408284982],[-86.8475384936823,36.1846787086276],[-86.8474392633742,36.184525569328],[-86.8473427649742,36.1843746080635],[-86.8472462970847,36.1842258447009],[-86.8471647938366,36.1841334047412],[-86.8471645980082,36.1841331816992],[-86.8471365252029,36.1841013502746],[-86.8471314283909,36.1840955773568],[-86.8470322556828,36.1839834081257],[-86.846916997969,36.1838523546924],[-86.8467046001982,36.1837637383261],[-86.8466159329966,36.1835201476115],[-86.8465928890876,36.1834568517092],[-86.8465834284755,36.1834593902374],[-86.8465739667511,36.1834619287726],[-86.8465645061474,36.1834644682005],[-86.8465550392656,36.1834667318831],[-86.8465455808744,36.1834692703927],[-86.8465361202593,36.1834718089172],[-86.8465266585415,36.1834743483499],[-86.8465172001486,36.1834768868573],[-86.8465077343755,36.1834791505284],[-86.8464982726752,36.1834816917613],[-86.8464728815057,36.1834203329011],[-86.8463508082828,36.183126702474],[-86.8463986861042,36.1830406605397],[-86.8462703931031,36.1829580464906],[-86.8462490038628,36.182731837075],[-86.8462428791233,36.1826659503072],[-86.8462285462234,36.182511762366],[-86.8462263270272,36.1825119554725],[-86.8461914628305,36.1825154958048],[-86.846156936584,36.1825190346595],[-86.8461224132562,36.18252284747],[-86.8460875549223,36.1825269384071],[-86.8460530345189,36.1825310260645],[-86.846018519974,36.1825356634456],[-86.845984009458,36.1825405747747],[-86.8459498368912,36.1825454846269],[-86.8459153311163,36.1825509456778],[-86.8458811643923,36.182556404343],[-86.8458707123991,36.1825295566448],[-86.8458612717178,36.1825021520848],[-86.8458528500176,36.1824750143701],[-86.8458454385348,36.1824473216042],[-86.8458387051573,36.1824196231852],[-86.8458329849068,36.1823916427797],[-86.8458282807126,36.1823636552547],[-86.8458245936948,36.1823356615037],[-86.845821920903,36.1823073848575],[-86.8458199280499,36.1822793792358],[-86.8458192873632,36.1822510883512],[-86.8458193247947,36.1822227936165],[-86.8458203782666,36.1821944908613],[-86.8458224518392,36.1821664567472],[-86.8458255414693,36.182138416415],[-86.8458296471077,36.1821103653587],[-86.8458347699325,36.1820823098787],[-86.8458405760043,36.1820545235971],[-86.8458473925329,36.1820267275312],[-86.8458552314274,36.1819992045961],[-86.8458801598444,36.1819218370381],[-86.8455481794214,36.1818357067223],[-86.8455435267755,36.1818442554123],[-86.8455378573768,36.1818525363363],[-86.8455304754484,36.1818597306065],[-86.8455217340791,36.1818661097356],[-86.8455123047133,36.181871669922],[-86.8455021837163,36.181875861416],[-86.8454910349361,36.1818789587555],[-86.8454795325239,36.1818806904426],[-86.8454680121021,36.181881045114],[-86.84545648557,36.1818803047839],[-86.8454228830275,36.1818750432692],[-86.8453889473233,36.1818703365569],[-86.8453550203997,36.1818664535344],[-86.8453211022556,36.1818633942019],[-86.8452868509185,36.1818608869677],[-86.8452526054595,36.1818589312599],[-86.8452183687389,36.181857795637],[-86.8451841408133,36.1818574855063],[-86.8451499187439,36.1818577250997],[-86.8451157054292,36.1818587865803],[-86.8450814991191,36.1818604013822],[-86.8450473004597,36.1818628389803],[-86.8450134496237,36.1818660978949],[-86.8449792655777,36.1818699080058],[-86.8449454293627,36.1818745403345],[-86.8449119369296,36.1818797191211],[-86.8448784514578,36.1818854476244],[-86.844844977689,36.1818922755859],[-86.8448121838254,36.181899372766],[-86.8447790607854,36.1819072960017],[-86.8447466234837,36.1819160363879],[-86.8446658854332,36.1817166167168],[-86.8446428436701,36.1815893131075],[-86.8446169737268,36.1814510418931],[-86.8445909646215,36.1812995851578],[-86.8445804756832,36.1812401774125],[-86.8445650012903,36.1811525235861],[-86.8445390380552,36.1810054620029],[-86.8445103413574,36.1808562213334],[-86.8444843560463,36.1807069625853],[-86.844433599682,36.180522714043],[-86.8443856494642,36.1803472359337],[-86.8443376515832,36.1801673635371],[-86.8442140140553,36.1800121939939],[-86.8440903781322,36.1798570252109],[-86.8439425808721,36.1797240008965],[-86.8437920539277,36.1795887954788],[-86.8435851592101,36.1795067324596],[-86.8434996211801,36.1794723681023],[-86.8434445537692,36.1794502445442],[-86.8433700900634,36.1794203288985],[-86.8431632006489,36.1793382633189],[-86.8429835328105,36.1792669946826],[-86.8428120200743,36.1791978670411],[-86.8426405320927,36.1791309371829],[-86.8424554205488,36.1790575084648],[-86.8422730205584,36.1789840605443],[-86.8420851762814,36.17890845303],[-86.8419028002999,36.1788372025833],[-86.8417204046623,36.1787637538001],[-86.8415625144852,36.1787011221945],[-86.8414234064218,36.1788757072686],[-86.8413135247695,36.1792500758917],[-86.8412802539518,36.1792439898605],[-86.8412466470026,36.1792381801488],[-86.8412130476896,36.1792331950371],[-86.8411794524065,36.1792284847754],[-86.8411455239045,36.1792243257],[-86.8411115990106,36.1792207163649],[-86.8410776843844,36.1792176558224],[-86.8410437733649,36.1792151450202],[-86.8410095291048,36.1792131836014],[-86.8409752884977,36.1792117764287],[-86.8409413942642,36.179210639017],[-86.8409071674973,36.1792103276734],[-86.8408729436437,36.1792102911873],[-86.8408387296406,36.1792110792853],[-86.8408045174286,36.1792121413474],[-86.8407703110411,36.1792137531341],[-86.8407364495188,36.1792159122842],[-86.8407022547688,36.1792186226192],[-86.8406684048825,36.1792218803177],[-86.8406345579057,36.179225412874],[-86.8406007196528,36.1792297691211],[-86.8405668838758,36.1792346742152],[-86.8405333956156,36.1792398526687],[-86.8404999109419,36.1792455799615],[-86.8404667711187,36.1792518537178],[-86.8404336360016,36.179258677207],[-86.8404005078135,36.1792660504137],[-86.8403677233719,36.1792739709932],[-86.840335280867,36.1792821631696],[-86.8403028441967,36.1792909068741],[-86.8402704173162,36.1793004706576],[-86.8402386663072,36.1793100315305],[-86.8402069251346,36.1793204169888],[-86.8401751897654,36.179331351272],[-86.8401441342703,36.1793425557023],[-86.8401130879222,36.1793543098359],[-86.8400823746147,36.1793663356298],[-86.8400520179828,36.1793791853986],[-86.8400219987991,36.1793923031925],[-86.8399919865657,36.1794059734092],[-86.8399626541954,36.1794199128738],[-86.8390539815596,36.1798789501348],[-86.8389165939637,36.1797040924274],[-86.8388176885404,36.1795795130979],[-86.8387187613036,36.179452735639],[-86.838614368825,36.1793216014708],[-86.8385182186874,36.1792013982432],[-86.8384138014206,36.1790680658713],[-86.8383148975795,36.1789434861083],[-86.8382104809939,36.1788101535511],[-86.8380163664256,36.1789103958688],[-86.8369719012315,36.1788319341047],[-86.8366924598078,36.1788096965227],[-86.8364103316467,36.1787896778126],[-86.8362529805224,36.1787775796889],[-86.8360630807475,36.1787635113024],[-86.8358758911327,36.1787494238513],[-86.8356886993612,36.1787353361253],[-86.8355015121026,36.1787212480782],[-86.8353143226872,36.1787071597561],[-86.8351298445503,36.1786930532881],[-86.8349426552675,36.1786789643896],[-86.8345427500723,36.1786399739172],[-86.8344745639048,36.1786324789708],[-86.8349307536989,36.1747144629348],[-86.8350127028591,36.1745493464998],[-86.8350916425159,36.17445182813],[-86.8352090243637,36.1742405898992],[-86.8353277671861,36.1741265883848],[-86.8354058488983,36.173980178159],[-86.8354646247453,36.1738665897104],[-86.8355826863112,36.1737201793201],[-86.8356419708771,36.1736549377577],[-86.8357010875514,36.1735737646512],[-86.8357986474315,36.1733788696751],[-86.8360933695226,36.1729238350877],[-86.8361324926802,36.1728425253479],[-86.8365447569619,36.1721924566185],[-86.8366141629144,36.1721029695769],[-86.8370367991303,36.1715580406845],[-86.8372725651975,36.1712003831993],[-86.8374292312421,36.1709243137184],[-86.8375264395143,36.1706645892794],[-86.8375853798448,36.1705672078988],[-86.8376643093143,36.1705018289355],[-86.837743238361,36.1704043096494],[-86.8378416431515,36.1702901717487],[-86.8379595205563,36.1700951346542],[-86.8381168667355,36.1698838906787],[-86.8382345761691,36.1697050620357],[-86.8383925993981,36.1695259532479],[-86.8385041705279,36.1694076901152],[-86.8385658204102,36.1693423413438],[-86.838572296978,36.1693140035962],[-86.838579789398,36.1692856560864],[-86.8385883017237,36.1692575772792],[-86.8385978328233,36.1692297653798],[-86.838608383817,36.1692022212814],[-86.8386202925908,36.1691749426361],[-86.8386328840423,36.1691482081211],[-86.8386464924799,36.1691214665383],[-86.8386611196965,36.169094992763],[-86.8386767697077,36.1690690616551],[-86.8386934413918,36.1690436723208],[-86.838711131862,36.169018551694],[-86.8387295060889,36.1689939724843],[-86.8387489002503,36.1689696655784],[-86.8387653316102,36.1689536177928],[-86.8387817629729,36.1689375709061],[-86.8387985362224,36.168921795628],[-86.8388156513778,36.1689062937608],[-86.8388327602768,36.168890516145],[-86.8388498787435,36.1688750133485],[-86.8388673346892,36.1688597857958],[-86.8388851306796,36.1688445504696],[-86.8389029284861,36.1688295927199],[-86.8389207273974,36.1688146349599],[-86.8389347926356,36.1687991533723],[-86.8389488589799,36.1687836717754],[-86.8389625863219,36.168768192533],[-86.8389759717556,36.1687524407774],[-86.838989018197,36.1687366922778],[-86.8390020617175,36.1687206680076],[-86.839014764451,36.1687043721178],[-86.839027468974,36.1686883511024],[-86.8390398326912,36.1686720566651],[-86.8390518533987,36.168655490624],[-86.8390655748951,36.1686394625345],[-86.8390792963859,36.1686234344435],[-86.8390930178616,36.1686074054496],[-86.8391067393414,36.1685913773553],[-86.8391207986905,36.1685753460091],[-86.8391345230658,36.1685595927795],[-86.8391485835151,36.1685435614222],[-86.8391626457636,36.1685278058401],[-86.8391770481041,36.1685120469904],[-86.8391911103319,36.1684962905037],[-86.8393121284873,36.1684064438176],[-86.8394331452477,36.1683165961144],[-86.8394475522002,36.1683013869754],[-86.8394623021611,36.1682864503372],[-86.8394777285678,36.1682717838805],[-86.8394935053268,36.1682576638602],[-86.8395099596428,36.1682438140132],[-86.839527097758,36.1682305091841],[-86.8395445777604,36.1682174759615],[-86.8395624014562,36.168204990122],[-86.8395809089418,36.1681930483985],[-86.8395997583339,36.1681813800834],[-86.8396205417477,36.1681603575178],[-86.8396426847205,36.1681398752671],[-86.8396661992926,36.1681207561091],[-86.839690395445,36.1681021828824],[-86.8397159620856,36.1680849727547],[-86.8397428923049,36.1680685777993],[-86.8397701760415,36.1680535539182],[-86.839798823348,36.1680393443068],[-86.8398281631672,36.16802650341],[-86.8398581914796,36.1680147563671],[-86.8398774001275,36.168005007923],[-86.8398966047595,36.1679949855168],[-86.8399154685859,36.1679846896895],[-86.8399343295074,36.1679741198924],[-86.8399525124279,36.1679635539093],[-86.8399706895339,36.1679524390887],[-86.8399888648367,36.1679410493894],[-86.8400067000582,36.167929664758],[-86.8400241915258,36.1679177282333],[-86.8400413429124,36.1679057967769],[-86.8400723648663,36.1678918454602],[-86.8401033868094,36.1678778941355],[-86.8401344105307,36.1678642167773],[-86.8401654416069,36.1678508151494],[-86.8401968009748,36.1678371363398],[-86.840228170589,36.167824006326],[-86.8402595361805,36.1678106023448],[-86.8402912469894,36.1677974699391],[-86.8403226161487,36.1677846147918],[-86.8403543265133,36.1677717572606],[-86.8403701938863,36.1677664275096],[-86.8403857193825,36.1677608279524],[-86.8404009029158,36.1677549504783],[-86.840416083574,36.167748801739],[-86.8404312583979,36.1677421023605],[-86.8404457523331,36.1677351337343],[-86.8404605863695,36.167728162738],[-86.8404747354943,36.1677206476339],[-86.840488882807,36.1677128567511],[-86.8405026882229,36.1677047942605],[-86.8405199005935,36.1676986313596],[-86.8405371111519,36.1676921926792],[-86.8405539798134,36.1676854823904],[-86.8405705047681,36.1676782247161],[-86.8405870227946,36.1676704182125],[-86.8406031989046,36.1676623382982],[-86.8406190342286,36.1676539867682],[-86.840634527655,36.1676453636302],[-86.8406496762528,36.167636192214],[-86.840664482953,36.1676267491902],[-86.8406942185625,36.1676193994843],[-86.8407236162862,36.1676120521247],[-86.8407533518943,36.1676047033054],[-86.8407827466947,36.1675970810632],[-86.8408121414895,36.167589458814],[-86.8408415351767,36.1675818374664],[-86.8408712660392,36.167573937973],[-86.8409003189221,36.167566044097],[-86.8409297096698,36.1675581469587],[-86.8409590986197,36.1675499758386],[-86.8409945995198,36.1675431356648],[-86.8410300945874,36.1675357457444],[-86.8410655925617,36.1675286306815],[-86.8411007468324,36.1675209691279],[-86.841136236053,36.1675130294402],[-86.8411713862848,36.1675050930057],[-86.8412065335958,36.167496881693],[-86.841241677976,36.1674883946007],[-86.8412764844785,36.1674799107545],[-86.8413112840625,36.1674708798734],[-86.8413460847021,36.1674618444686],[-86.8413808813367,36.167452536897],[-86.841416057729,36.1674470724011],[-86.8414508904075,36.1674410605145],[-86.8414857132345,36.1674342249227],[-86.8415201952612,36.1674271168085],[-86.8415546685366,36.1674191840803],[-86.8415887936592,36.1674107048943],[-86.8416229214165,36.1674019507918],[-86.8416567003274,36.1673923753485],[-86.841690133297,36.1673822525312],[-86.8417235604365,36.1673715808698],[-86.8417563048657,36.1673603641837],[-86.8417890423425,36.1673485977603],[-86.8418239004905,36.1673447837936],[-86.8418587589004,36.1673415186903],[-86.841893623558,36.1673385284219],[-86.8419284929341,36.1673360878872],[-86.8419633692428,36.1673341961695],[-86.841998589262,36.1673328518208],[-86.8420338151039,36.1673320562966],[-86.8420687059827,36.1673315379875],[-86.8421039405739,36.167331567047],[-86.8421388419993,36.1673321472964],[-86.8421740893613,36.1673332748986],[-86.8422089995397,36.1673346797317],[-86.8422384524192,36.1673325517916],[-86.8422675546367,36.1673293267378],[-86.8422966440796,36.1673250031138],[-86.8423253850906,36.1673195832621],[-86.8423537714068,36.167312791437],[-86.8423818070755,36.1673049043015],[-86.8424091541974,36.1672959224115],[-86.8424358116698,36.1672858466766],[-86.8424621195935,36.1672746747232],[-86.8424873988757,36.1672624112919],[-86.8425107007304,36.1672553809331],[-86.8425343503264,36.1672491728076],[-86.8425583505636,36.1672440599807],[-86.8425826985435,36.1672397693866],[-86.842607059993,36.1672368522343],[-86.8426317702985,36.1672347573068],[-86.8426568238843,36.1672334828403],[-86.8426815597424,36.167233585029],[-86.8427063021252,36.167234510931],[-86.8427310550734,36.1672365363077],[-86.8427519716051,36.1672281490163],[-86.8427732325362,36.1672205830804],[-86.8427951875662,36.1672141118475],[-86.8428174881083,36.1672084619618],[-86.8428398003155,36.1672039106431],[-86.842862801472,36.1672001782729],[-86.8428858087475,36.1671975454093],[-86.8429091637609,36.1671957338767],[-86.8429321970197,36.1671950241405],[-86.842955577594,36.1671954097253],[-86.8429904060236,36.1671891234349],[-86.8430255803987,36.1671833853962],[-86.8430607623701,36.1671784674531],[-86.8430962862473,36.1671738219998],[-86.8431314799303,36.167170007113],[-86.8431670155202,36.1671664647158],[-86.8432028988014,36.1671637391367],[-86.8432384489609,36.167161568355],[-86.8432743439405,36.1671599440292],[-86.8433099057614,36.1671588708961],[-86.8433458153348,36.167158619988],[-86.8433813888395,36.1671586463059],[-86.8434173100888,36.1671594939474],[-86.8434532342604,36.1671606164461],[-86.8434888282084,36.1671625659073],[-86.8435244279923,36.1671650641929],[-86.8435434130945,36.1671660301598],[-86.8435624054297,36.1671680947257],[-86.8435834287922,36.167169871106],[-86.8436044561796,36.1671719214415],[-86.8436254824662,36.1671739726825],[-86.843646512778,36.1671762978788],[-86.8436672070427,36.1671789021114],[-86.843688236926,36.1671815003894],[-86.8437089363196,36.1671843776648],[-86.8437299753947,36.1671875265494],[-86.8437506754911,36.1671906787013],[-86.8437713785023,36.1671941048164],[-86.8438062890593,36.1671952342963],[-86.8438411999058,36.167196913541],[-86.8438761100538,36.1671983178921],[-86.8439110271511,36.16720027106],[-86.8439459431387,36.1672022242256],[-86.8439805293193,36.1672047294643],[-86.8440154460208,36.1672069583946],[-86.8440503718963,36.1672097361262],[-86.8440849576633,36.1672125153251],[-86.8441198893915,36.1672158427726],[-86.8441544780876,36.1672188968195],[-86.8441890737556,36.167222501486],[-86.8442236716401,36.1672261052257],[-86.8442582698192,36.1672302587304],[-86.8442928684119,36.1672341373339],[-86.8443274728475,36.1672385647621],[-86.8443596996281,36.1672424599385],[-86.8443919234869,36.1672460802382],[-86.8444241444333,36.1672494265625],[-86.8444563624478,36.167252497109],[-86.8444885804744,36.1672555685482],[-86.8445207955494,36.1672583624071],[-86.8445530077588,36.1672608867966],[-86.8445855560062,36.1672631312339],[-86.8446177623397,36.1672651031666],[-86.8446503076744,36.1672670736196],[-86.8446781514058,36.1672729218009],[-86.8447063242615,36.1672779448096],[-86.8447344912592,36.1672824171746],[-86.8447629895929,36.1672860634498],[-86.8447914780487,36.1672888860234],[-86.8448202967275,36.1672908825146],[-86.8448487705646,36.167292331636],[-86.8448775716869,36.1672926789058],[-86.8449063669659,36.167292477334],[-86.8449351534741,36.1672914520526],[-86.8449704096288,36.1672934025409],[-86.8450053344643,36.167296180004],[-86.845040262924,36.1672995063072],[-86.8450748696623,36.1673039344068],[-86.8451094800075,36.1673089095443],[-86.8451440991777,36.1673147128807],[-86.845178051349,36.1673213428394],[-86.8452120049259,36.1673285216543],[-86.8452459724431,36.1673367999161],[-86.8452792678422,36.1673456326523],[-86.8453125731058,36.1673552863706],[-86.8453452063007,36.1673654990701],[-86.8453781861392,36.1673765312945],[-86.8454111671174,36.1673875653045],[-86.8454441480568,36.1673985947993],[-86.8454771220752,36.1674090781619],[-86.8455104413465,36.167419833084],[-86.8455434131499,36.1674303155428],[-86.845576721024,36.1674405207496],[-86.8456100344735,36.1674507268095],[-86.8456436835785,36.1674609296072],[-86.845676991893,36.1674708607962],[-86.8457092920213,36.1674816228045],[-86.8457415892287,36.167492109936],[-86.8457742166567,36.1675017709809],[-86.8458071772241,36.1675108799056],[-86.8458404698289,36.1675194376186],[-86.8458737576923,36.1675274455788],[-86.8459073775821,36.1675349014259],[-86.8459413276885,36.1675415311851],[-86.8459752748702,36.1675478860668],[-86.8460095522669,36.1675534148602],[-86.8460438238073,36.167558393908],[-86.8460671576518,36.1675543846081],[-86.8460908509907,36.1675522961014],[-86.8461148979546,36.167551577751],[-86.8461386235025,36.1675525100785],[-86.8461623695774,36.1675553673781],[-86.8461854522786,36.1675595992599],[-86.846208214689,36.1675654827137],[-86.8462303137761,36.1675727452562],[-86.8462517524529,36.1675816599534],[-86.8462718520481,36.1675919584783],[-86.8463058285445,36.1676010574401],[-86.8463398051065,36.1676101617996],[-86.8463737845791,36.1676195383137],[-86.8464077669916,36.1676291896862],[-86.8464414133526,36.1676391182943],[-86.8464750597123,36.1676490459918],[-86.8465087101338,36.1676592494413],[-86.8465423561085,36.1676694520113],[-86.8465756727011,36.1676799317707],[-86.8466089900121,36.1676906864044],[-86.8466429548973,36.1676986894043],[-86.8466769227223,36.1677069672625],[-86.8467108934583,36.1677155172754],[-86.8467445282195,36.1677243517345],[-86.8467778279637,36.1677334562128],[-86.8468114714723,36.1677431089484],[-86.8468444410592,36.1677530421929],[-86.8468777514878,36.1677632497278],[-86.8469107269297,36.1677737299863],[-86.8469433692649,36.1677847632514],[-86.8469760105074,36.1677957974167],[-86.8470035419988,36.1678041203494],[-86.8470307315696,36.1678121707869],[-86.8470585991308,36.1678202164601],[-86.8470861218464,36.1678277156715],[-86.8471136474919,36.1678354888432],[-86.8471415051551,36.1678427099014],[-86.847169366879,36.1678502067144],[-86.8471972249618,36.1678571537696],[-86.8472250774827,36.1678640999562],[-86.8472532694103,36.1678707697666],[-86.8472654829657,36.1678723324603],[-86.847277354594,36.1678736226646],[-86.8472895611691,36.1678746356279],[-86.8473017688656,36.1678756494834],[-86.8473139740171,36.1678761126772],[-86.8473261725097,36.1678765768179],[-86.8473387133199,36.1678770376529],[-86.8473509081654,36.1678769520397],[-86.8473631074568,36.1678768663941],[-86.8473752971538,36.1678765068273],[-86.8473939001928,36.1678736291375],[-86.8474125266937,36.1678729485852],[-86.8474311737325,36.167874191204],[-86.8474495023176,36.167877359374],[-86.8474671745595,36.1678824545665],[-86.8474838503649,36.167889480071],[-86.8474995282996,36.16789788522],[-86.8475135262659,36.1679082263827],[-86.8475255064577,36.1679196803651],[-86.8475358074593,36.1679325187775],[-86.8475538469395,36.1679403584608],[-86.8475722206656,36.1679476469186],[-86.8475905874116,36.1679543856457],[-86.8476092931539,36.1679611219893],[-86.8476283290938,36.167967032247],[-86.8476476999724,36.1679726643596],[-86.8476670661121,36.1679777485281],[-86.8476864293084,36.1679825569244],[-86.8477061245256,36.16798681411],[-86.8477261528654,36.1679905191757],[-86.8477594851357,36.1680026469289],[-86.8477928196392,36.1680147746574],[-86.8478264835406,36.1680266251743],[-86.8478601489707,36.168038201684],[-86.8478938103525,36.168049502423],[-86.84792780781,36.1680605268044],[-86.8479618052768,36.1680715511763],[-86.8479957975928,36.1680823006862],[-86.84803013042,36.1680927729057],[-86.8480644581054,36.1681029711644],[-86.84809878579,36.1681131685121],[-86.8481188259311,36.1681179729838],[-86.8481388631271,36.1681225016832],[-86.8481588973971,36.1681267564126],[-86.848179264787,36.1681304590209],[-86.8481996263124,36.1681336127912],[-86.8482199889412,36.168136765649],[-86.8482403445933,36.1681393696768],[-86.8482610322623,36.168141422492],[-86.8482817180958,36.1681431995269],[-86.8483024010016,36.1681447025916],[-86.8483207150012,36.1681464971911],[-86.8483390389191,36.1681491154823],[-86.8483570286005,36.1681522849957],[-86.8483750241703,36.1681560051432],[-86.8483926906562,36.1681605504641],[-86.848410024028,36.1681656479011],[-86.8484270242856,36.168171297454],[-86.8484440304235,36.1681774967402],[-86.8484603673834,36.1681845244923],[-86.848476369393,36.1681918285839],[-86.848500826023,36.1681977005981],[-86.848525287414,36.1682041214495],[-86.8485494138655,36.1682108195392],[-86.8485735461999,36.1682180673597],[-86.8485973424742,36.1682255915254],[-86.8486208060328,36.1682333929142],[-86.8486442688065,36.1682417440809],[-86.8486558364115,36.168246195252],[-86.8486674029064,36.1682506464298],[-86.8486902009667,36.168259826927],[-86.8487130008509,36.1682692813942],[-86.8487273766194,36.168282915718],[-86.8487424204504,36.1682957206769],[-86.8487584753995,36.1683079696479],[-86.8487752013607,36.1683196650222],[-86.8487929325501,36.1683302537713],[-86.8488109957567,36.1683402913071],[-86.8488300641909,36.1683492222169],[-86.8488498036363,36.1683575995288],[-86.8488698703289,36.1683648758833],[-86.8488902683099,36.1683713252391],[-86.8489120347434,36.1683791385077],[-86.8489341364986,36.1683863978343],[-86.8489562309194,36.1683933868265],[-86.8489786636019,36.1684000967442],[-86.8490010904161,36.1684062578234],[-86.8490238521667,36.1684121407527],[-86.8490466091406,36.168417473033],[-86.8490697011081,36.1684225325704],[-86.8490927882788,36.1684270396563],[-86.849115871409,36.168431272779],[-86.8491444486132,36.1684423349507],[-86.8491726938149,36.1684539483271],[-86.8492005989279,36.168465564991],[-86.8492285110342,36.1684777304749],[-86.8492560870954,36.1684901732053],[-86.8492836627631,36.1685028899195],[-86.8493105700693,36.1685158871201],[-86.8493378159777,36.1685291559193],[-86.8493643908999,36.1685429792111],[-86.8493909613856,36.1685568025283],[-86.8494076408277,36.1685638268411],[-86.8494243140057,36.1685705772086],[-86.8494413214186,36.1685767763458],[-86.849458327713,36.1685829745871],[-86.8494756630764,36.168588346746],[-86.8494933385493,36.1685937165087],[-86.8495110081491,36.1685985374343],[-86.8495290130747,36.168602805319],[-86.8495470084003,36.1686067992815],[-86.8495650052404,36.1686105192434],[-86.849590247741,36.1686265464656],[-86.8496161653393,36.1686422976471],[-86.849642080024,36.1686577757576],[-86.8496683307525,36.1686729748059],[-86.8496949134891,36.1686876217343],[-86.8497218322979,36.1687019923037],[-86.8497490871597,36.1687160847114],[-86.8497763361537,36.1687296282786],[-86.849804260206,36.1687428921983],[-86.8498321813336,36.168755882145],[-86.8498532758601,36.1687642497522],[-86.8498740354404,36.1687728937015],[-86.8498944619167,36.1687820897697],[-86.8499148913513,36.1687915616033],[-86.8499349847191,36.168801308886],[-86.8499547461046,36.1688116091814],[-86.8499741674064,36.168821913671],[-86.8499935956554,36.1688327624778],[-86.8500123518339,36.1688441684953],[-86.8500311080082,36.1688555736087],[-86.850052277258,36.1688708083604],[-86.8500734424599,36.1688857682485],[-86.8500952805059,36.1689004494067],[-86.8501171211628,36.1689148547528],[-86.8501392945553,36.1689289837641],[-86.8501621400602,36.1689425582604],[-86.8501846454643,36.1689561351479],[-86.850207824092,36.1689691575121],[-86.8502313406228,36.1689821783928],[-86.8502548512613,36.1689946486322],[-86.8502751866027,36.1689953300447],[-86.8502951987659,36.1689973863702],[-86.8503148914296,36.1690013682611],[-86.8503339219296,36.169006728355],[-86.8503522891553,36.1690134666599],[-86.8503696581672,36.1690218604244],[-86.8503860249087,36.1690316347889],[-86.8504010526059,36.1690427921268],[-86.8504143970925,36.1690550599748],[-86.8504263955316,36.1690681610696],[-86.8504389972705,36.1690743911084],[-86.8504512640612,36.1690808974931],[-86.8504635338,36.1690876787443],[-86.8504758035409,36.1690944599942],[-86.8504877376204,36.1691012436081],[-86.8504996679792,36.1691083021355],[-86.8505116016648,36.169115359737],[-86.8505231993105,36.169122695495],[-86.8505347969583,36.1691300312518],[-86.8505463986563,36.1691376409662],[-86.8505779750149,36.1691440112649],[-86.8506088892263,36.1691517606641],[-86.8506394762124,36.1691606101128],[-86.8506693999327,36.1691708377694],[-86.8506986585628,36.1691821696601],[-86.850727255041,36.1691948797519],[-86.8507548451904,36.1692086946814],[-86.8507817713639,36.1692236138387],[-86.8508073503952,36.1692393671514],[-86.8509271234706,36.169255827265],[-86.8510659576333,36.1693119900556],[-86.8513168533012,36.1694552671687],[-86.8516034317232,36.1696400471095],[-86.8517784634873,36.1697860540049],[-86.8517930559002,36.16988265047],[-86.851755772718,36.1699444507317],[-86.8518312579507,36.1699065548273],[-86.8519724969402,36.1699341283327],[-86.8521904258668,36.1700358821241],[-86.8524681449448,36.1701525934921],[-86.8527192110985,36.170311249427],[-86.8530469457571,36.1705418866908],[-86.8533011505922,36.1707400779288],[-86.8535539307488,36.1709329143249]]]},"properties":{"OBJECTID":12,"DistrictName":"BORDEAUX REDEVELOPMENT DISTRICT","GlobalID":"fbb1df38-c3ea-41bc-b59c-b8e446208b0d"}}]}